{
"type": "FeatureCollection",
"name": "agno",
"crs": { "type": "name", "properties": { "name": "urn:ogc:def:crs:OGC:1.3:CRS84" } },
"features": [
{ "type": "Feature", "properties": { "HYBAS_ID": 5120029740, "NEXT_DOWN": 0, "NEXT_SINK": 5120029740, "MAIN_BAS": 5120029740, "DIST_SINK": 0.0, "DIST_MAIN": 0.0, "SUB_AREA": 5.6, "UP_AREA": 6664.2, "PFAF_ID": 524094010100, "ENDO": 0, "COAST": 0, "ORDER": 1, "SORT": 12392 }, "geometry": { "type": "Polygon", "coordinates": [ [ [ 120.326742214626762, 15.254519992404543 ], [ 120.321189032660612, 15.260045539008276 ], [ 120.320480007595506, 15.269091118706626 ], [ 120.310788472493513, 15.278808932834231 ], [ 120.305908881293433, 15.279519992404543 ], [ 120.302424452039958, 15.282980007595516 ], [ 120.3, 15.283333333333363 ], [ 120.299646674262178, 15.294091118706627 ], [ 120.292019992404533, 15.301742214626765 ], [ 120.291313340928838, 15.330879550510012 ], [ 120.295480007595515, 15.335075547960098 ], [ 120.296186659071211, 15.351712883843346 ], [ 120.292019992404533, 15.355908881293432 ], [ 120.291666666666686, 15.358333333333363 ], [ 120.264242214626762, 15.358686659071211 ], [ 120.244091118706621, 15.378813340928849 ], [ 120.235075547960093, 15.379519992404543 ], [ 120.223257785373292, 15.39131334092885 ], [ 120.189242214626759, 15.392019992404544 ], [ 120.185757785373283, 15.395480007595516 ], [ 120.180908881293419, 15.39618665907121 ], [ 120.177424452039958, 15.399646674262183 ], [ 120.175, 15.4 ], [ 120.170833333333363, 15.4 ], [ 120.170833333333363, 15.404166666666697 ], [ 120.171186659071211, 15.41492445203996 ], [ 120.174646674262178, 15.418408881293432 ], [ 120.175353325737873, 15.423257785373295 ], [ 120.178813340928841, 15.426742214626767 ], [ 120.179166666666688, 15.433333333333364 ], [ 120.172575547960093, 15.43368665907121 ], [ 120.167024739583354, 15.439209832085535 ], [ 120.166313340928838, 15.444091118706627 ], [ 120.160790167914513, 15.449641927083363 ], [ 120.158333333333374, 15.45 ], [ 120.15833333333336, 15.454166666666698 ], [ 120.170833333333363, 15.454166666666698 ], [ 120.178395250108537, 15.454938083224857 ], [ 120.179809400770424, 15.468801710340742 ], [ 120.18269059922963, 15.472864956325985 ], [ 120.184297519259999, 15.478202480740048 ], [ 120.189635043674073, 15.47980940077043 ], [ 120.199208577473982, 15.48800777859161 ], [ 120.200642734103752, 15.502718607584667 ], [ 120.192912462022591, 15.505046081543 ], [ 120.191023932562956, 15.508655124240482 ], [ 120.195190599229619, 15.514531622992653 ], [ 120.196476067437089, 15.518801710340743 ], [ 120.199357265896296, 15.522864956325986 ], [ 120.200642734103752, 15.533655124240482 ], [ 120.196476067437089, 15.539531622992653 ], [ 120.195190599229619, 15.543801710340743 ], [ 120.188142734103749, 15.552031622992653 ], [ 120.186857265896293, 15.556301710340744 ], [ 120.179809400770424, 15.564531622992654 ], [ 120.178523932562953, 15.566988457573816 ], [ 120.18269059922963, 15.572864956325986 ], [ 120.183976067437086, 15.579488457573817 ], [ 120.179809400770424, 15.585364956325986 ], [ 120.178523932562953, 15.59796837700741 ], [ 120.175023566352024, 15.602905103895431 ], [ 120.167352634006093, 15.60521460639109 ], [ 120.166666666666686, 15.620833333333366 ], [ 120.167019992404533, 15.623257785373296 ], [ 120.170480007595515, 15.626742214626768 ], [ 120.170833333333363, 15.629166666666698 ], [ 120.170480007595515, 15.631591118706629 ], [ 120.167019992404533, 15.635075547960101 ], [ 120.166313340928838, 15.64409111870663 ], [ 120.162853325737871, 15.647575547960102 ], [ 120.162146674262175, 15.652424452039963 ], [ 120.158686659071208, 15.655908881293435 ], [ 120.157980007595512, 15.668379550510014 ], [ 120.162146674262175, 15.672575547960101 ], [ 120.162853325737871, 15.680882263183626 ], [ 120.154519992404531, 15.689242214626768 ], [ 120.153813340928849, 15.710046217176682 ], [ 120.157980007595512, 15.714242214626768 ], [ 120.15833333333336, 15.716666666666699 ], [ 120.157980007595512, 15.719091118706629 ], [ 120.150353325737868, 15.726742214626768 ], [ 120.149646674262172, 15.73159111870663 ], [ 120.146186659071205, 15.735075547960102 ], [ 120.145833333333357, 15.741666666666699 ], [ 120.144933742947075, 15.745172119140658 ], [ 120.1375, 15.745833333333366 ], [ 120.137146674262169, 15.752424452039964 ], [ 120.133686659071202, 15.755908881293436 ], [ 120.132980007595506, 15.773257785373296 ], [ 120.129519992404539, 15.776742214626768 ], [ 120.129166666666691, 15.779166666666701 ], [ 120.129519992404539, 15.781591118706631 ], [ 120.132980007595506, 15.785075547960103 ], [ 120.133686659071202, 15.798257785373297 ], [ 120.137146674262169, 15.801742214626769 ], [ 120.137853325737865, 15.806591118706631 ], [ 120.141313340928846, 15.810075547960103 ], [ 120.141666666666694, 15.8125 ], [ 120.139242214626762, 15.81285332573788 ], [ 120.12952440049915, 15.822544860839876 ], [ 120.128813340928843, 15.827424452039963 ], [ 120.125353325737876, 15.830908881293436 ], [ 120.124646674262181, 15.835046217176682 ], [ 120.128813340928843, 15.83924221462677 ], [ 120.129166666666691, 15.854166666666686 ], [ 120.130017598470076, 15.857482401529982 ], [ 120.136649068196633, 15.859184265136753 ], [ 120.13806728786895, 15.864710489908887 ], [ 120.141099378797762, 15.868622843424513 ], [ 120.142233954535612, 15.881377156575555 ], [ 120.161932712131104, 15.901956176757846 ], [ 120.163387383355058, 15.907624816894565 ], [ 120.17304382324221, 15.908900621202291 ], [ 120.176956176757841, 15.911932712131112 ], [ 120.18137715657555, 15.913067287868959 ], [ 120.194929843478761, 15.92564578586158 ], [ 120.195833333333354, 15.929166666666685 ], [ 120.195266045464436, 15.943877156575539 ], [ 120.19223395453561, 15.947789510091164 ], [ 120.191099378797773, 15.969618394639776 ], [ 120.19937642415367, 15.971742418077277 ], [ 120.20056728786895, 15.99387715657554 ], [ 120.203599378797762, 15.997789510091165 ], [ 120.204733954535612, 16.004913330078143 ], [ 120.20056728786895, 16.010289510091166 ], [ 120.2, 16.0125 ], [ 120.19778951009117, 16.013067287868942 ], [ 120.193877156575539, 16.016099378797762 ], [ 120.188161214192732, 16.01756625705297 ], [ 120.1875, 16.025 ], [ 120.189924452039961, 16.025353325737868 ], [ 120.197575547960099, 16.032980007595505 ], [ 120.2, 16.033333333333353 ], [ 120.2, 16.041666666666686 ], [ 120.203398471408448, 16.040694851345506 ], [ 120.204979112413213, 16.029834662543422 ], [ 120.22083333333336, 16.029166666666686 ], [ 120.239924452039958, 16.029519992404534 ], [ 120.243408881293433, 16.032980007595505 ], [ 120.256591118706623, 16.033686659071201 ], [ 120.260075547960099, 16.037146674262171 ], [ 120.279166666666697, 16.0375 ], [ 120.285493469238304, 16.036882527669292 ], [ 120.289506530761741, 16.03395080566408 ], [ 120.299028354220951, 16.032564968533006 ], [ 120.300926378038213, 16.025926378038214 ], [ 120.306326802571633, 16.024382527669289 ], [ 120.31867319742841, 16.013117472330748 ], [ 120.327160135904975, 16.01188252766929 ], [ 120.331173197428413, 16.008950805664082 ], [ 120.345033433702284, 16.007597859700539 ], [ 120.349382358127201, 16.002160305447067 ], [ 120.350617641872859, 15.997839694552971 ], [ 120.353549024793864, 15.993826972113734 ], [ 120.354901801215306, 15.979969278971373 ], [ 120.366335550944029, 15.978305053710956 ], [ 120.370271809895854, 15.972916666666684 ], [ 120.366049024793867, 15.967135959201407 ], [ 120.367474365234401, 15.959293619791685 ], [ 120.37299346923831, 15.957715861002622 ], [ 120.378697543674065, 15.953549194335956 ], [ 120.381326802571635, 15.954784138997415 ], [ 120.385416666666686, 15.957771809895853 ], [ 120.38950653076175, 15.954784138997415 ], [ 120.393826802571638, 15.953549194335956 ], [ 120.397839864095076, 15.950617472330748 ], [ 120.40833333333336, 15.95 ], [ 120.408900621202278, 15.943622843424514 ], [ 120.411932712131104, 15.939710489908888 ], [ 120.413067287868955, 15.935289510091181 ], [ 120.416099378797767, 15.931377156575556 ], [ 120.417572360568599, 15.925637647840746 ], [ 120.435543823242213, 15.924432712131111 ], [ 120.439456176757844, 15.921400621202292 ], [ 120.456377156575542, 15.920266045464444 ], [ 120.461753336588572, 15.916099378797778 ], [ 120.481377156575547, 15.917233954535625 ], [ 120.486753336588563, 15.921400621202292 ], [ 120.49387715657555, 15.920266045464444 ], [ 120.497789510091167, 15.917233954535625 ], [ 120.503315734863307, 15.915815734863315 ], [ 120.504166666666691, 15.9125 ], [ 120.506591118706623, 15.912853325737881 ], [ 120.510075547960099, 15.916313340928854 ], [ 120.520833333333357, 15.9166666666667 ], [ 120.521552870008705, 15.909126620822516 ], [ 120.529924689398896, 15.90788947211375 ], [ 120.535327317979622, 15.911894904242656 ], [ 120.55, 15.9125 ], [ 120.550567287868944, 15.914710489908888 ], [ 120.554562547471818, 15.919865587022603 ], [ 120.560543823242213, 15.921400621202292 ], [ 120.564456176757844, 15.924432712131111 ], [ 120.574112616644996, 15.925708516438837 ], [ 120.575887383355067, 15.932624816894565 ], [ 120.585543823242219, 15.933900621202291 ], [ 120.594913567437089, 15.942249552408889 ], [ 120.596400621202278, 15.948043823242221 ], [ 120.603599378797767, 15.956122843424513 ], [ 120.6041666666667, 15.9625 ], [ 120.6125, 15.9625 ], [ 120.612853325737873, 15.973257785373299 ], [ 120.620480007595518, 15.980908881293438 ], [ 120.621186659071213, 15.985757785373298 ], [ 120.628813340928843, 15.993408881293437 ], [ 120.629519992404539, 16.006591118706631 ], [ 120.632980007595506, 16.010075547960106 ], [ 120.633686659071202, 16.019091118706633 ], [ 120.645480007595509, 16.030908881293438 ], [ 120.646186659071205, 16.035757785373299 ], [ 120.649646674262186, 16.039242214626771 ], [ 120.650353325737868, 16.044091118706632 ], [ 120.653813340928849, 16.047575547960104 ], [ 120.654519992404545, 16.052424452039965 ], [ 120.658318752712702, 16.05625 ], [ 120.654519992404545, 16.060075547960103 ], [ 120.653813340928849, 16.069091118706634 ], [ 120.649646674262186, 16.07328711615672 ], [ 120.650353325737868, 16.077424452039967 ], [ 120.654519992404545, 16.081620449490053 ], [ 120.653813340928849, 16.119091118706635 ], [ 120.649646674262186, 16.123287116156721 ], [ 120.650355699327278, 16.131619771321649 ], [ 120.660075547960091, 16.141313340928857 ], [ 120.6625, 16.141666666666687 ], [ 120.662853325737871, 16.160757785373285 ], [ 120.666313340928852, 16.164242214626757 ], [ 120.667019992404548, 16.168382432725714 ], [ 120.658686659071208, 16.176742214626756 ], [ 120.657980007595512, 16.181591118706617 ], [ 120.650353325737868, 16.189242214626756 ], [ 120.649646674262186, 16.210757785373286 ], [ 120.645847913954015, 16.214583333333355 ], [ 120.649646674262186, 16.218408881293424 ], [ 120.65, 16.225 ], [ 120.649646674262186, 16.227424452039951 ], [ 120.646186659071205, 16.230908881293423 ], [ 120.645480007595509, 16.235757785373284 ], [ 120.642019992404542, 16.239242214626756 ], [ 120.641313340928846, 16.244091118706617 ], [ 120.631621805826853, 16.253808932834222 ], [ 120.629166666666691, 16.254166666666688 ], [ 120.628315734863307, 16.257482571072071 ], [ 120.62168426513675, 16.259184095594641 ], [ 120.620833333333366, 16.2625 ], [ 120.621186659071213, 16.269091118706619 ], [ 120.624646674262181, 16.272575547960091 ], [ 120.625353325737876, 16.277424452039952 ], [ 120.632980007595506, 16.285075547960091 ], [ 120.633686659071202, 16.289924452039951 ], [ 120.641313340928846, 16.29757554796009 ], [ 120.642019992404542, 16.302424452039951 ], [ 120.649646674262186, 16.310075547960089 ], [ 120.65, 16.325 ], [ 120.649282836914097, 16.332346937391513 ], [ 120.643673197428413, 16.333950805664085 ], [ 120.638658820258271, 16.337613932291688 ], [ 120.636882358127195, 16.343826972113739 ], [ 120.633894856770866, 16.347916666666688 ], [ 120.636938476562534, 16.352083333333354 ], [ 120.63395097520619, 16.356173027886307 ], [ 120.632539198133713, 16.365872531467037 ], [ 120.621568467881971, 16.367469278971377 ], [ 120.62021569146053, 16.381326972113737 ], [ 120.617284308539524, 16.385339694552975 ], [ 120.616049024793867, 16.397993638780406 ], [ 120.613117641872861, 16.402006361219641 ], [ 120.6125, 16.408333333333356 ], [ 120.615815734863304, 16.40918409559464 ], [ 120.616666666666688, 16.4125 ], [ 120.617019992404536, 16.414924452039951 ], [ 120.620480007595518, 16.418408881293423 ], [ 120.621186659071213, 16.443379720052107 ], [ 120.617019992404536, 16.447575547960092 ], [ 120.616313340928841, 16.455883110894121 ], [ 120.628813340928843, 16.468408881293424 ], [ 120.629519992404539, 16.473257785373285 ], [ 120.645480007595509, 16.48924221462676 ], [ 120.645833333333357, 16.495833333333355 ], [ 120.652424452039952, 16.496186659071203 ], [ 120.656620449490049, 16.500353325737869 ], [ 120.673257785373295, 16.499646674262177 ], [ 120.676742214626756, 16.496186659071203 ], [ 120.679166666666688, 16.495833333333355 ], [ 120.680134412977452, 16.499603949652801 ], [ 120.685289510091167, 16.503599378797766 ], [ 120.691005452473988, 16.505066257052974 ], [ 120.692233954535624, 16.518877156575545 ], [ 120.695266045464436, 16.522789510091169 ], [ 120.69654184977216, 16.532445949978321 ], [ 120.70331573486331, 16.53418409559464 ], [ 120.705134412977458, 16.541270616319469 ], [ 120.710289510091172, 16.545266045464434 ], [ 120.718877156575545, 16.546400621202281 ], [ 120.722789510091175, 16.5494327121311 ], [ 120.728315734863315, 16.550850762261309 ], [ 120.729733954535618, 16.556377156575543 ], [ 120.732766045464444, 16.56028951009117 ], [ 120.734301079644126, 16.566270616319468 ], [ 120.739456176757841, 16.570266045464432 ], [ 120.741666666666688, 16.570833333333358 ], [ 120.742024739583357, 16.573290337456619 ], [ 120.747575547960096, 16.578813340928843 ], [ 120.752456834581196, 16.579524739583356 ], [ 120.757980007595521, 16.585075547960095 ], [ 120.758686659071202, 16.594091118706622 ], [ 120.762146674262183, 16.597575547960094 ], [ 120.762853325737879, 16.610757785373288 ], [ 120.766652764214442, 16.614584011501758 ], [ 120.758347235785621, 16.622915988498288 ], [ 120.762146674262183, 16.626742214626759 ], [ 120.762853325737879, 16.63159111870662 ], [ 120.766313340928846, 16.635075547960092 ], [ 120.767021518283443, 16.648286946614608 ], [ 120.772575547960102, 16.653813340928842 ], [ 120.777424452039952, 16.654519992404538 ], [ 120.780908881293428, 16.657980007595512 ], [ 120.78333333333336, 16.658333333333356 ], [ 120.782980007595512, 16.660757785373288 ], [ 120.779519992404545, 16.664242214626761 ], [ 120.778813340928849, 16.672546386718775 ], [ 120.782980007595512, 16.67674221462676 ], [ 120.783686659071208, 16.689217122395856 ], [ 120.760787116156706, 16.712142266167561 ], [ 120.758333333333354, 16.7125 ], [ 120.758686659071202, 16.714924452039956 ], [ 120.762146674262183, 16.718408881293428 ], [ 120.7625, 16.72083333333336 ], [ 120.781591118706629, 16.721186659071204 ], [ 120.789242214626768, 16.728813340928845 ], [ 120.795833333333363, 16.729166666666693 ], [ 120.796400621202281, 16.731377156575547 ], [ 120.799432712131107, 16.735289510091171 ], [ 120.800567287868958, 16.75221048990888 ], [ 120.807766045464433, 16.76028951009117 ], [ 120.808900621202284, 16.773043823242212 ], [ 120.81193271213111, 16.776956176757839 ], [ 120.813067287868947, 16.781377156575545 ], [ 120.816099378797773, 16.785289510091172 ], [ 120.817233954535624, 16.793877156575547 ], [ 120.820266045464436, 16.797789510091171 ], [ 120.821684265136753, 16.803315904405409 ], [ 120.82831573486331, 16.805017428927975 ], [ 120.829733954535612, 16.810543823242213 ], [ 120.836932712131102, 16.818622843424503 ], [ 120.838067287868952, 16.823043823242212 ], [ 120.845266045464442, 16.831122843424506 ], [ 120.846400621202292, 16.835543823242212 ], [ 120.850396050347257, 16.84069892035593 ], [ 120.856377156575547, 16.842233954535615 ], [ 120.861844211154548, 16.846793280707491 ], [ 120.8625, 16.854166666666693 ], [ 120.86570231119795, 16.853202311197943 ], [ 120.867631022135441, 16.846797688802109 ], [ 120.874255032009572, 16.84480319552954 ], [ 120.875778876410621, 16.82986450195315 ], [ 120.891666666666694, 16.829166666666691 ], [ 120.899100409613737, 16.828505452473983 ], [ 120.9, 16.825 ], [ 120.900604926215308, 16.80616048177086 ], [ 120.903561740451423, 16.802172851562524 ], [ 120.904771592881971, 16.789493815104191 ], [ 120.908938259548634, 16.783873833550373 ], [ 120.907728407118086, 16.776993815104191 ], [ 120.904771592881971, 16.773006184895859 ], [ 120.903508504231795, 16.746718682183186 ], [ 120.898006184895863, 16.74227159288197 ], [ 120.889493815104203, 16.741061740451414 ], [ 120.881339518229197, 16.733938259548637 ], [ 120.875907389322947, 16.732425944010441 ], [ 120.874395073784754, 16.726993815104191 ], [ 120.870228407118091, 16.721373833550373 ], [ 120.871663072374162, 16.713216145833357 ], [ 120.879166666666691, 16.7125 ], [ 120.879519992404539, 16.710075547960095 ], [ 120.882980007595521, 16.706591118706623 ], [ 120.883333333333368, 16.691666666666691 ], [ 120.8875, 16.691666666666691 ], [ 120.8868825276693, 16.656173027886307 ], [ 120.882715861002637, 16.650469292534748 ], [ 120.884141031901066, 16.642626953125024 ], [ 120.88966030544708, 16.641049194335963 ], [ 120.893673027886308, 16.638117472330752 ], [ 120.903372531467042, 16.636705864800369 ], [ 120.904784138997428, 16.627006361219642 ], [ 120.907715861002629, 16.622993638780407 ], [ 120.90833333333336, 16.583333333333357 ], [ 120.9, 16.583333333333357 ], [ 120.9, 16.579166666666691 ], [ 120.900567287868952, 16.57278951009117 ], [ 120.908900621202292, 16.563437228732663 ], [ 120.907766045464442, 16.551956176757834 ], [ 120.904733954535615, 16.54804382324221 ], [ 120.903599378797779, 16.526956176757835 ], [ 120.900567287868952, 16.523043823242212 ], [ 120.899032253689271, 16.517062717013911 ], [ 120.893877156575556, 16.513067287868946 ], [ 120.886932712131099, 16.511285061306445 ], [ 120.88806728786895, 16.481122843424501 ], [ 120.891099378797776, 16.477210489908877 ], [ 120.891666666666694, 16.4625 ], [ 120.891666666666694, 16.458333333333357 ], [ 120.891666666666694, 16.454166666666691 ], [ 120.892019992404542, 16.451742214626758 ], [ 120.895480007595509, 16.448257785373286 ], [ 120.895833333333357, 16.445833333333354 ], [ 120.895480007595509, 16.439242214626759 ], [ 120.878813340928843, 16.422550116644988 ], [ 120.879519992404539, 16.414242214626757 ], [ 120.883686659071216, 16.410046386718772 ], [ 120.882980007595521, 16.405908881293424 ], [ 120.879519992404539, 16.402424452039952 ], [ 120.879166666666691, 16.395833333333357 ], [ 120.881377156575553, 16.395266045464432 ], [ 120.88528951009117, 16.392233954535612 ], [ 120.890958319769993, 16.390779283311655 ], [ 120.892233954535612, 16.3811228434245 ], [ 120.899432712131102, 16.37304382324221 ], [ 120.900567287868952, 16.360289510091167 ], [ 120.908900621202292, 16.350937228732661 ], [ 120.907766045464442, 16.347789510091168 ], [ 120.903599378797779, 16.342413330078145 ], [ 120.904733954535615, 16.297789510091167 ], [ 120.907864718967048, 16.29375 ], [ 120.904733954535615, 16.289710489908874 ], [ 120.903599378797779, 16.285289510091168 ], [ 120.900567287868952, 16.281377156575541 ], [ 120.899432712131102, 16.276956176757835 ], [ 120.896400621202289, 16.273043823242208 ], [ 120.895266045464439, 16.268622843424499 ], [ 120.892233954535612, 16.264710489908875 ], [ 120.891099378797776, 16.251956176757833 ], [ 120.875458780924504, 16.23542921278214 ], [ 120.878599378797773, 16.23137715657554 ], [ 120.879733954535624, 16.222789510091168 ], [ 120.883900621202287, 16.217413330078145 ], [ 120.882766045464436, 16.206122843424499 ], [ 120.879733954535624, 16.202210489908875 ], [ 120.878315904405412, 16.196684095594637 ], [ 120.871684095594645, 16.194982571072067 ], [ 120.870833333333366, 16.191666666666688 ], [ 120.870833333333366, 16.1625 ], [ 120.871684095594645, 16.15918409559464 ], [ 120.875, 16.158333333333353 ], [ 120.875353325737876, 16.151742214626758 ], [ 120.878813340928843, 16.148257785373282 ], [ 120.879166666666691, 16.1375 ], [ 120.880017428927985, 16.134184095594637 ], [ 120.883333333333368, 16.133333333333354 ], [ 120.885757785373286, 16.132980007595506 ], [ 120.889242214626762, 16.129519992404532 ], [ 120.894091118706626, 16.12881334092884 ], [ 120.897575547960102, 16.125353325737866 ], [ 120.9, 16.125 ], [ 120.899646674262186, 16.114242214626771 ], [ 120.895480007595509, 16.110046217176684 ], [ 120.896186659071205, 16.097575547960105 ], [ 120.900353325737882, 16.093379550510019 ], [ 120.899646674262186, 16.080908881293439 ], [ 120.896186659071205, 16.077424452039967 ], [ 120.895833333333357, 16.066666666666702 ], [ 120.89914923773874, 16.065815734863317 ], [ 120.900850762261314, 16.059184265136754 ], [ 120.90793728298614, 16.057365587022606 ], [ 120.911932712131104, 16.052210489908891 ], [ 120.913067287868955, 16.047789510091182 ], [ 120.920266045464444, 16.039710489908888 ], [ 120.920833333333363, 16.029166666666701 ], [ 120.920833333333363, 16.025 ], [ 120.921186659071211, 16.010075547960106 ], [ 120.924646674262178, 16.006591118706631 ], [ 120.925, 16.004166666666702 ], [ 120.924646674262178, 16.00174221462677 ], [ 120.920480007595515, 15.997546217176684 ], [ 120.921186659071211, 15.976742214626771 ], [ 120.932980007595518, 15.964924452039964 ], [ 120.933686659071213, 15.955908881293437 ], [ 120.937146674262181, 15.952424452039965 ], [ 120.937853325737876, 15.93924221462677 ], [ 120.941313340928843, 15.935757785373298 ], [ 120.941666666666691, 15.929166666666701 ], [ 120.939242214626759, 15.928813340928855 ], [ 120.929524400499162, 15.919121805826858 ], [ 120.928813340928855, 15.914242214626771 ], [ 120.921186659071211, 15.906591118706631 ], [ 120.920480007595515, 15.90174221462677 ], [ 120.914953274197075, 15.896187845865919 ], [ 120.897575547960102, 15.89548000759552 ], [ 120.889924452039963, 15.887853325737881 ], [ 120.885075547960099, 15.887146674262187 ], [ 120.877424452039961, 15.879519992404548 ], [ 120.860075547960093, 15.878813340928854 ], [ 120.856591118706632, 15.875353325737882 ], [ 120.847575547960105, 15.874646674262188 ], [ 120.844091118706629, 15.871186659071213 ], [ 120.825, 15.870833333333367 ], [ 120.824646674262183, 15.860075547960104 ], [ 120.812853325737876, 15.848257785373297 ], [ 120.812146674262181, 15.843408881293437 ], [ 120.808686659071213, 15.839924452039964 ], [ 120.808333333333366, 15.8375 ], [ 120.808989291720948, 15.830126444498731 ], [ 120.814456176757844, 15.825567287868957 ], [ 120.820437452528239, 15.824032253689269 ], [ 120.824432712131099, 15.818877156575555 ], [ 120.825850931803416, 15.813350931803418 ], [ 120.831377156575556, 15.81193271213111 ], [ 120.835289510091172, 15.808900621202291 ], [ 120.8375, 15.808333333333366 ], [ 120.839710489908882, 15.807766045464444 ], [ 120.843622843424512, 15.804733954535624 ], [ 120.853233506944477, 15.803464253743524 ], [ 120.86609937879777, 15.789710489908888 ], [ 120.867517428927982, 15.784184265136751 ], [ 120.874149237738749, 15.782482401529981 ], [ 120.875, 15.779166666666701 ], [ 120.87443271213111, 15.776956176757846 ], [ 120.871293131510441, 15.772905307345953 ], [ 120.883900621202287, 15.759321424696214 ], [ 120.882766045464436, 15.751956176757846 ], [ 120.879733954535624, 15.74804382324222 ], [ 120.878599378797773, 15.743622843424511 ], [ 120.875468614366355, 15.739583333333366 ], [ 120.878706868489616, 15.735405307345953 ], [ 120.867233954535621, 15.72304382324222 ], [ 120.866005452473985, 15.70923292371965 ], [ 120.8625, 15.708333333333366 ], [ 120.860289510091178, 15.707766045464442 ], [ 120.854870944552985, 15.703247239854633 ], [ 120.853599378797767, 15.693622843424512 ], [ 120.842233954535615, 15.681377156575554 ], [ 120.841099378797765, 15.672789510091178 ], [ 120.837104119194905, 15.667634412977463 ], [ 120.830017598470079, 15.665815734863314 ], [ 120.82825334337025, 15.658940802680153 ], [ 120.797789510091178, 15.657766045464442 ], [ 120.793877156575547, 15.654733954535622 ], [ 120.785289510091175, 15.653599378797775 ], [ 120.78125, 15.650468783908451 ], [ 120.777210489908882, 15.653599378797775 ], [ 120.770833333333357, 15.654166666666699 ], [ 120.770266045464439, 15.651956176757844 ], [ 120.76306728786895, 15.643877156575552 ], [ 120.761791483561225, 15.6342207166884 ], [ 120.754749552408882, 15.632413567437098 ], [ 120.746400621202284, 15.62304382324222 ], [ 120.745266045464433, 15.614456176757844 ], [ 120.733900621202281, 15.602210489908886 ], [ 120.733333333333363, 15.6 ], [ 120.722789510091175, 15.600567287868955 ], [ 120.71875, 15.603697882758279 ], [ 120.714710489908882, 15.600567287868955 ], [ 120.710289510091172, 15.599432712131108 ], [ 120.702210489908879, 15.592233954535622 ], [ 120.682586669921903, 15.591099378797775 ], [ 120.677210489908887, 15.595266045464442 ], [ 120.674253336588563, 15.596400621202289 ], [ 120.668877156575547, 15.592233954535622 ], [ 120.664456176757838, 15.591099378797775 ], [ 120.659301079644123, 15.58710411919491 ], [ 120.657482401529975, 15.580017598470084 ], [ 120.650850931803419, 15.578315734863313 ], [ 120.649432712131102, 15.572789510091177 ], [ 120.642233954535612, 15.564710489908887 ], [ 120.641099378797776, 15.556122843424511 ], [ 120.636509535047765, 15.550619167751767 ], [ 120.625, 15.55 ], [ 120.625353325737876, 15.543408881293434 ], [ 120.629152086046034, 15.539583333333365 ], [ 120.625014580620686, 15.535416666666698 ], [ 120.628813340928843, 15.531591118706629 ], [ 120.629519992404539, 15.501742214626766 ], [ 120.632980007595506, 15.498257785373294 ], [ 120.633333333333354, 15.495833333333364 ], [ 120.631122843424507, 15.49526604546444 ], [ 120.625967746310792, 15.491270785861577 ], [ 120.62443271213111, 15.485289510091176 ], [ 120.621400621202284, 15.481377156575551 ], [ 120.620266045464433, 15.468622843424509 ], [ 120.617233954535621, 15.464710489908885 ], [ 120.615958150227897, 15.455054050021731 ], [ 120.610289510091178, 15.453599378797774 ], [ 120.596736823187968, 15.441020880805151 ], [ 120.59583333333336, 15.4375 ], [ 120.593408881293428, 15.437146674262184 ], [ 120.589924452039952, 15.43368665907121 ], [ 120.5875, 15.433333333333364 ], [ 120.584184265136741, 15.432482401529978 ], [ 120.582766045464439, 15.426956176757843 ], [ 120.579733954535612, 15.423043823242217 ], [ 120.579166666666694, 15.420833333333363 ], [ 120.57278951009117, 15.420266045464441 ], [ 120.568877156575553, 15.41723395453562 ], [ 120.563350931803413, 15.415815734863312 ], [ 120.561932712131096, 15.410289510091175 ], [ 120.554733954535621, 15.402210489908885 ], [ 120.553315734863304, 15.396684265136749 ], [ 120.55, 15.395833333333364 ], [ 120.535339864095079, 15.395215691460534 ], [ 120.531326802571641, 15.392284308539526 ], [ 120.517469278971376, 15.390931532118085 ], [ 120.516049024793858, 15.381173197428415 ], [ 120.512386067708363, 15.376158820258276 ], [ 120.50617319742841, 15.3743823581272 ], [ 120.492332288954017, 15.361631266276071 ], [ 120.491049024793867, 15.331173197428415 ], [ 120.488117641872861, 15.327160135904977 ], [ 120.48673180474178, 15.317638312445776 ], [ 120.481173197428404, 15.316049024793866 ], [ 120.476158820258277, 15.312386067708363 ], [ 120.474382358127201, 15.306173197428414 ], [ 120.467284308539519, 15.29799346923831 ], [ 120.466049024793861, 15.291197543674073 ], [ 120.470276726616774, 15.285410054524769 ], [ 120.463117641872856, 15.277160135904976 ], [ 120.461882358127198, 15.268673197428415 ], [ 120.458950975206193, 15.264660135904977 ], [ 120.458333333333357, 15.25 ], [ 120.44778951009117, 15.249432712131105 ], [ 120.438419765896299, 15.241083780924509 ], [ 120.436649068196644, 15.234184265136747 ], [ 120.431122843424504, 15.232766045464437 ], [ 120.421465216742646, 15.224006144205758 ], [ 120.42026604546443, 15.206122843424508 ], [ 120.417233954535618, 15.202210489908882 ], [ 120.416099378797767, 15.193622843424507 ], [ 120.392233954535612, 15.168877156575549 ], [ 120.391666666666694, 15.1625 ], [ 120.389242214626762, 15.162146674262182 ], [ 120.385757785373286, 15.158686659071208 ], [ 120.370833333333366, 15.158333333333362 ], [ 120.363399590386308, 15.157672119140653 ], [ 120.3625, 15.154166666666695 ], [ 120.35, 15.154166666666695 ], [ 120.347575547960091, 15.154519992404541 ], [ 120.34202084011504, 15.160046895345079 ], [ 120.341666666666697, 15.170833333333361 ], [ 120.341666666666697, 15.191666666666695 ], [ 120.341666666666697, 15.233333333333363 ], [ 120.3375, 15.233333333333363 ], [ 120.329938083224846, 15.234104749891522 ], [ 120.329166666666694, 15.241666666666696 ], [ 120.329166666666694, 15.254166666666695 ], [ 120.326742214626762, 15.254519992404543 ] ] ] } }
]
}
