{
"type": "FeatureCollection",
"name": "agusan",
"crs": { "type": "name", "properties": { "name": "urn:ogc:def:crs:OGC:1.3:CRS84" } },
"features": [
{ "type": "Feature", "properties": { "HYBAS_ID": 5120117760, "NEXT_DOWN": 5120024400, "NEXT_SINK": 5120024400, "MAIN_BAS": 5120024400, "DIST_SINK": 0.3, "DIST_MAIN": 0.3, "SUB_AREA": 81.4, "UP_AREA": 11790.4, "PFAF_ID": 524024103000, "ENDO": 0, "COAST": 0, "ORDER": 1, "SORT": 11171 }, "geometry": { "type": "Polygon", "coordinates": [ [ [ 125.423257785373295, 8.032980007595517 ], [ 125.4166666666667, 8.033333333333349 ], [ 125.416308932834241, 8.030878194173209 ], [ 125.406591118706629, 8.021186659071212 ], [ 125.401742214626765, 8.020480007595518 ], [ 125.389924452039963, 8.008686659071213 ], [ 125.383333333333368, 8.008333333333365 ], [ 125.379166666666706, 8.008333333333365 ], [ 125.378813340928858, 8.010757785373295 ], [ 125.373290337456623, 8.016308593750031 ], [ 125.370833333333366, 8.016666666666682 ], [ 125.370266045464447, 8.023043823242203 ], [ 125.367233954535621, 8.026956176757828 ], [ 125.36609937879777, 8.030103895399321 ], [ 125.375582885742219, 8.040747070312516 ], [ 125.382720608181458, 8.042578803168418 ], [ 125.383900621202287, 8.069618394639772 ], [ 125.375850762261322, 8.071684095594634 ], [ 125.37443271213111, 8.07721048990887 ], [ 125.362959798177116, 8.089571804470502 ], [ 125.36609937879777, 8.093622843424495 ], [ 125.367233954535621, 8.117413330078142 ], [ 125.363067287868958, 8.122789510091163 ], [ 125.361932712131107, 8.125746663411475 ], [ 125.36609937879777, 8.131122843424496 ], [ 125.367233954535621, 8.138246663411476 ], [ 125.363067287868958, 8.143622843424495 ], [ 125.361932712131107, 8.156377156575537 ], [ 125.350567287868955, 8.168622843424496 ], [ 125.349291653103336, 8.17827928331165 ], [ 125.34583333333336, 8.179166666666683 ], [ 125.346186659071208, 8.198257785373281 ], [ 125.349646674262189, 8.201742214626753 ], [ 125.350353325737885, 8.21075778537328 ], [ 125.353813340928852, 8.214242214626754 ], [ 125.354519992404548, 8.219091118706615 ], [ 125.357980007595515, 8.222575547960087 ], [ 125.358333333333363, 8.225 ], [ 125.357766045464444, 8.22721048990887 ], [ 125.346400621202292, 8.23945617675783 ], [ 125.34498257107208, 8.244982571072066 ], [ 125.338161214192738, 8.246732923719636 ], [ 125.3375, 8.254166666666684 ], [ 125.337146674262186, 8.260757785373281 ], [ 125.333686659071219, 8.264242214626753 ], [ 125.332980007595523, 8.285757785373281 ], [ 125.329519992404542, 8.289242214626753 ], [ 125.329166666666694, 8.3125 ], [ 125.325, 8.3125 ], [ 125.308333333333366, 8.3125 ], [ 125.307766045464447, 8.314710489908872 ], [ 125.304733954535621, 8.318622843424496 ], [ 125.30359937879777, 8.323043823242205 ], [ 125.296400621202295, 8.331122843424497 ], [ 125.295172119140659, 8.344933742947067 ], [ 125.289456176757838, 8.346400621202275 ], [ 125.285543823242222, 8.349432712131094 ], [ 125.271732923719654, 8.350661214192726 ], [ 125.270266045464439, 8.356377156575538 ], [ 125.267233954535627, 8.360289510091164 ], [ 125.266099378797776, 8.36887715657554 ], [ 125.26306728786895, 8.372789510091163 ], [ 125.261932712131113, 8.377210489908872 ], [ 125.257937282986148, 8.382365587022587 ], [ 125.254166666666706, 8.383333333333351 ], [ 125.253813340928858, 8.389924452039949 ], [ 125.250353325737876, 8.393408881293421 ], [ 125.249646674262181, 8.406591118706615 ], [ 125.246186659071213, 8.410075547960087 ], [ 125.245480007595518, 8.439213053385435 ], [ 125.249985419379371, 8.44375 ], [ 125.246186659071213, 8.447575547960088 ], [ 125.245480007595518, 8.451713053385436 ], [ 125.249646674262181, 8.455908881293421 ], [ 125.250353325737876, 8.460757785373282 ], [ 125.257980007595521, 8.468408881293422 ], [ 125.258333333333368, 8.470833333333353 ], [ 125.257803683810792, 8.477248128255226 ], [ 125.254696316189268, 8.481085205078145 ], [ 125.253637017144129, 8.484416368272589 ], [ 125.262116156684058, 8.493745591905402 ], [ 125.257249281141526, 8.499401516384568 ], [ 125.243585205078162, 8.500529649522589 ], [ 125.229745483398474, 8.513624742296027 ], [ 125.228578016493088, 8.532362196180575 ], [ 125.224059380425373, 8.533862982855922 ], [ 125.218914794921901, 8.529696316189256 ], [ 125.214418538411493, 8.528637017144117 ], [ 125.20933261447486, 8.524517822265643 ], [ 125.204939100477461, 8.52588636610245 ], [ 125.204166666666694, 8.529166666666686 ], [ 125.201742214626762, 8.529519992404534 ], [ 125.195831976996558, 8.53540072970922 ], [ 125.199985419379374, 8.539583333333352 ], [ 125.196186659071216, 8.543408881293423 ], [ 125.195833333333368, 8.545833333333352 ], [ 125.189242214626773, 8.545480007595506 ], [ 125.185757785373298, 8.542019992404533 ], [ 125.164242214626768, 8.54131334092884 ], [ 125.160757785373292, 8.537853325737867 ], [ 125.156620279947944, 8.537146674262171 ], [ 125.152424452039966, 8.54131334092884 ], [ 125.147575547960102, 8.542019992404533 ], [ 125.139924452039963, 8.549646674262172 ], [ 125.133333333333368, 8.55 ], [ 125.133333333333368, 8.554166666666687 ], [ 125.132980007595521, 8.556591118706617 ], [ 125.123288302951423, 8.566308932834222 ], [ 125.120833333333366, 8.566666666666686 ], [ 125.120833333333366, 8.570833333333354 ], [ 125.121759711371553, 8.574073621961826 ], [ 125.127160305447077, 8.575617472330748 ], [ 125.131173027886319, 8.578549194335958 ], [ 125.13966030544708, 8.579784138997416 ], [ 125.143673027886322, 8.582715861002624 ], [ 125.149639553493955, 8.58442145453561 ], [ 125.161882527669306, 8.597839694552972 ], [ 125.163658650716172, 8.604052734375021 ], [ 125.168673027886314, 8.607715861002625 ], [ 125.174073621961838, 8.609259711371548 ], [ 125.175617472330757, 8.614660305447069 ], [ 125.179784138997434, 8.620364040798631 ], [ 125.178549194335972, 8.627160305447068 ], [ 125.174382527669309, 8.632864040798632 ], [ 125.175617472330757, 8.643826972113736 ], [ 125.178549194335972, 8.647839694552971 ], [ 125.179784138997434, 8.664660305447068 ], [ 125.182715861002634, 8.668673027886305 ], [ 125.183950805664097, 8.672993638780403 ], [ 125.186882527669297, 8.67700636121964 ], [ 125.188117472330759, 8.697993638780403 ], [ 125.191049194335974, 8.702006361219638 ], [ 125.192284138997422, 8.706326972113736 ], [ 125.195215861002637, 8.710339694552973 ], [ 125.196759711371556, 8.715740288628494 ], [ 125.20216030544708, 8.717284138997417 ], [ 125.210339694552985, 8.724382527669292 ], [ 125.227160305447086, 8.72561747233075 ], [ 125.243673027886317, 8.741049194335959 ], [ 125.249073621961841, 8.742593044704883 ], [ 125.250986395941879, 8.749282836914084 ], [ 125.265864054362012, 8.750735134548632 ], [ 125.267488606770868, 8.761896430121549 ], [ 125.281173027886311, 8.774382527669292 ], [ 125.28333333333336, 8.775 ], [ 125.283691067165833, 8.777454969618077 ], [ 125.293408881293431, 8.787146674262175 ], [ 125.298257785373295, 8.787853325737869 ], [ 125.301742214626771, 8.791313340928841 ], [ 125.308333333333366, 8.791666666666689 ], [ 125.308333333333366, 8.8 ], [ 125.304166666666703, 8.8 ], [ 125.304519992404551, 8.806591118706619 ], [ 125.307980007595518, 8.810075547960091 ], [ 125.308333333333366, 8.8125 ], [ 125.3125, 8.8125 ], [ 125.316666666666706, 8.8125 ], [ 125.320833333333368, 8.8125 ], [ 125.322993638780417, 8.813117472330751 ], [ 125.327006361219645, 8.81604919433596 ], [ 125.33549363878042, 8.817284138997417 ], [ 125.339583333333366, 8.820271809895855 ], [ 125.345364040798643, 8.81604919433596 ], [ 125.357547675238749, 8.817421807183182 ], [ 125.366049194335972, 8.82700636121964 ], [ 125.367284138997434, 8.831326972113738 ], [ 125.374382527669297, 8.839506361219641 ], [ 125.375970119900202, 8.850415039062522 ], [ 125.385339694552982, 8.842284138997417 ], [ 125.38966030544708, 8.841049194335959 ], [ 125.397839694552985, 8.833950805664085 ], [ 125.402160305447083, 8.832715861002626 ], [ 125.410420396592912, 8.825547620985265 ], [ 125.435406494140665, 8.849445936414952 ], [ 125.440305582682328, 8.845867241753494 ], [ 125.445215861002637, 8.85200636121964 ], [ 125.446912299262181, 8.857940673828146 ], [ 125.464506361219648, 8.874382527669294 ], [ 125.468826972113746, 8.875617472330752 ], [ 125.472839694552988, 8.87854919433596 ], [ 125.477160305447086, 8.879784138997419 ], [ 125.481173027886314, 8.882715861002627 ], [ 125.483333333333363, 8.883333333333356 ], [ 125.482980007595515, 8.885757785373286 ], [ 125.479519992404548, 8.889242214626758 ], [ 125.4791666666667, 8.9 ], [ 125.472789510091175, 8.899432712131098 ], [ 125.468877156575559, 8.896400621202279 ], [ 125.455381605360273, 8.895266045464432 ], [ 125.453315904405414, 8.903315904405405 ], [ 125.45, 8.90416666666669 ], [ 125.450567287868964, 8.914710489908877 ], [ 125.454562717013928, 8.919865587022592 ], [ 125.460543823242219, 8.921400621202279 ], [ 125.469913736979194, 8.929749552408877 ], [ 125.471684095594654, 8.936649237738738 ], [ 125.47831590440542, 8.938350762261308 ], [ 125.479733954535618, 8.943877156575544 ], [ 125.482766045464444, 8.94778951009117 ], [ 125.483900621202295, 8.963246663411482 ], [ 125.479733954535618, 8.968622843424502 ], [ 125.478599378797782, 8.990451727973113 ], [ 125.485543823242224, 8.992233954535614 ], [ 125.489456176757841, 8.995266045464433 ], [ 125.494982571072086, 8.996684095594642 ], [ 125.495833333333366, 9.0 ], [ 125.498043823242227, 8.9994327121311 ], [ 125.501956176757844, 8.99640062120228 ], [ 125.515451727973129, 8.995266045464433 ], [ 125.516666666666694, 9.0 ], [ 125.519091118706626, 9.000353325737871 ], [ 125.522575547960102, 9.003813340928843 ], [ 125.525, 9.00416666666669 ], [ 125.525, 9.008333333333358 ], [ 125.529166666666697, 9.008333333333358 ], [ 125.535543823242222, 9.007766045464432 ], [ 125.539456176757852, 9.004733954535613 ], [ 125.543877156575562, 9.003599378797766 ], [ 125.549253336588578, 8.9994327121311 ], [ 125.55637715657555, 9.000567287868947 ], [ 125.561753336588581, 9.004733954535613 ], [ 125.569933742947086, 9.003431193033878 ], [ 125.578599378797776, 8.993877156575543 ], [ 125.580134412977472, 8.987896050347246 ], [ 125.585289510091187, 8.983900621202281 ], [ 125.590815904405417, 8.982482571072072 ], [ 125.591666666666697, 8.979166666666689 ], [ 125.606377156575562, 8.978599378797766 ], [ 125.610289510091178, 8.975567287868946 ], [ 125.639710489908893, 8.974432712131099 ], [ 125.643622843424509, 8.97140062120228 ], [ 125.653247070312531, 8.970129055447071 ], [ 125.657766045464442, 8.964710489908878 ], [ 125.659037611219659, 8.955086263020856 ], [ 125.665816582573825, 8.949432712131099 ], [ 125.673043823242224, 8.950567287868946 ], [ 125.676956176757841, 8.953599378797765 ], [ 125.683900621202298, 8.955381605360266 ], [ 125.682766045464447, 8.977210489908877 ], [ 125.678599378797784, 8.982586669921899 ], [ 125.679733954535621, 8.989710489908877 ], [ 125.68693271213111, 8.997789510091168 ], [ 125.688399590386325, 9.003505452473981 ], [ 125.702210489908893, 9.004733954535613 ], [ 125.706122843424509, 9.007766045464432 ], [ 125.708333333333371, 9.008333333333358 ], [ 125.708862982855933, 9.018914794921898 ], [ 125.717620849609418, 9.028410169813391 ], [ 125.724087863498298, 9.02993333604603 ], [ 125.725529649522599, 9.034273952908009 ], [ 125.721362982855936, 9.039418538411482 ], [ 125.720303683810798, 9.052248128255233 ], [ 125.717196316189273, 9.056085205078148 ], [ 125.716666666666697, 9.09166666666669 ], [ 125.717024739583366, 9.094123670789955 ], [ 125.722575547960105, 9.099646674262177 ], [ 125.727424452039969, 9.100353325737871 ], [ 125.730908881293445, 9.103813340928843 ], [ 125.733333333333363, 9.104166666666691 ], [ 125.735757785373295, 9.103813340928843 ], [ 125.739242214626771, 9.100353325737871 ], [ 125.748257785373298, 9.099646674262177 ], [ 125.768408881293439, 9.079519992404538 ], [ 125.781591118706629, 9.078813340928843 ], [ 125.785075547960105, 9.075353325737872 ], [ 125.789924452039969, 9.074646674262176 ], [ 125.793408881293445, 9.071186659071204 ], [ 125.795833333333377, 9.070833333333358 ], [ 125.798257785373295, 9.07048000759551 ], [ 125.805908881293433, 9.062853325737871 ], [ 125.81495463053389, 9.062144300672767 ], [ 125.820480007595521, 9.056591118706621 ], [ 125.820833333333368, 9.05416666666669 ], [ 125.820833333333368, 9.0375 ], [ 125.820480007595521, 9.022575547960093 ], [ 125.817019992404553, 9.019091118706621 ], [ 125.816666666666706, 9.0125 ], [ 125.8125, 9.0125 ], [ 125.805908881293433, 9.012146674262176 ], [ 125.800355021158893, 9.00662027994794 ], [ 125.8, 9.0 ], [ 125.801020304362012, 8.996523708767384 ], [ 125.824236043294306, 8.995127699110267 ], [ 125.825497436523477, 8.982752482096377 ], [ 125.821463690863752, 8.97714742024742 ], [ 125.820202975802985, 8.972852579752628 ], [ 125.817297024197089, 8.968814086914085 ], [ 125.816666666666706, 8.95 ], [ 125.817019992404553, 8.943408881293426 ], [ 125.820480007595521, 8.939924452039953 ], [ 125.820833333333368, 8.9375 ], [ 125.827424452039963, 8.937853325737869 ], [ 125.830908881293439, 8.941313340928842 ], [ 125.848257785373306, 8.942019992404536 ], [ 125.852453613281284, 8.946186659071204 ], [ 125.860787963867224, 8.945477294921897 ], [ 125.866313340928855, 8.939924452039953 ], [ 125.867019992404551, 8.935075547960093 ], [ 125.870480007595518, 8.931591118706621 ], [ 125.870833333333366, 8.929166666666688 ], [ 125.873257785373298, 8.928813340928842 ], [ 125.876742214626773, 8.92535332573787 ], [ 125.879166666666691, 8.925 ], [ 125.878599378797759, 8.906122843424502 ], [ 125.874432712131096, 8.90074666341148 ], [ 125.875644429524755, 8.884237331814258 ], [ 125.88248240152997, 8.882482571072071 ], [ 125.883900621202272, 8.876956176757835 ], [ 125.886932712131099, 8.87304382324221 ], [ 125.8875, 8.8625 ], [ 125.889924452039949, 8.862146674262174 ], [ 125.893408881293425, 8.858686659071203 ], [ 125.90833333333336, 8.858333333333356 ], [ 125.908686659071208, 8.855908881293425 ], [ 125.912146674262175, 8.852424452039953 ], [ 125.912853325737871, 8.847575547960091 ], [ 125.920480007595501, 8.839924452039952 ], [ 125.920833333333377, 8.8375 ], [ 125.921400621202281, 8.835289510091169 ], [ 125.936932712131096, 8.818877156575542 ], [ 125.938067287868947, 8.814456176757835 ], [ 125.941099378797759, 8.81054382324221 ], [ 125.942517598470076, 8.805017428927973 ], [ 125.948043823242216, 8.803599378797765 ], [ 125.951956176757832, 8.800567287868946 ], [ 125.961612616644985, 8.799291653103321 ], [ 125.963067287868938, 8.793622843424501 ], [ 125.966099378797765, 8.789710489908876 ], [ 125.966666666666683, 8.775 ], [ 125.966666666666683, 8.770833333333355 ], [ 125.964242214626751, 8.770480007595507 ], [ 125.958691406250026, 8.764957004123286 ], [ 125.958333333333357, 8.7625 ], [ 125.958333333333357, 8.754166666666688 ], [ 125.959470452202709, 8.749735514322937 ], [ 125.964456176757835, 8.753599378797764 ], [ 125.979166666666686, 8.754166666666688 ], [ 125.98130171034073, 8.753523763020855 ], [ 125.989531622992644, 8.746476236979188 ], [ 125.995088365342909, 8.744803195529535 ], [ 125.996604749891517, 8.729938083224848 ], [ 126.004166666666706, 8.729166666666687 ], [ 126.019091118706626, 8.728813340928841 ], [ 126.030908881293428, 8.717019992404534 ], [ 126.045833333333348, 8.716666666666688 ], [ 126.046400621202281, 8.6936228434245 ], [ 126.049531216091609, 8.689583333333355 ], [ 126.04526604546443, 8.684079996744813 ], [ 126.046507093641509, 8.671729871961826 ], [ 126.054733954535607, 8.669618394639777 ], [ 126.053517150878932, 8.65514424641929 ], [ 126.043877156575547, 8.646400621202277 ], [ 126.036932712131104, 8.644618394639778 ], [ 126.038067287868941, 8.626956176757833 ], [ 126.041197882758269, 8.622916666666686 ], [ 126.038067287868941, 8.618877156575541 ], [ 126.036932712131104, 8.614456176757832 ], [ 126.033346557617207, 8.60982903374568 ], [ 126.039456176757838, 8.604733954535611 ], [ 126.046400621202281, 8.60295172797311 ], [ 126.045182630750887, 8.588464016384568 ], [ 126.03971048990887, 8.583900621202277 ], [ 126.0375, 8.583333333333353 ], [ 126.022575547960088, 8.582980007595506 ], [ 126.019091118706626, 8.579519992404535 ], [ 126.014242214626762, 8.578813340928839 ], [ 126.008688184950103, 8.573286946614603 ], [ 126.008333333333354, 8.566666666666686 ], [ 126.004166666666691, 8.566666666666686 ], [ 126.003523932562956, 8.564531792534742 ], [ 125.995190599229616, 8.554800415039082 ], [ 125.996821085611998, 8.546003892686652 ], [ 126.003844875759569, 8.541023763020853 ], [ 126.010468377007399, 8.54230957031252 ], [ 126.016344875759572, 8.546476236979187 ], [ 126.032625155978749, 8.545076836480055 ], [ 126.033976067437095, 8.518698459201408 ], [ 126.038142734103758, 8.512821790907138 ], [ 126.036802673339864, 8.488544718424498 ], [ 126.029870266384577, 8.486457316080749 ], [ 126.029166666666711, 8.475 ], [ 126.029519992404531, 8.472575547960089 ], [ 126.045480007595515, 8.456591118706616 ], [ 126.046188184950111, 8.443379720052102 ], [ 126.051742214626756, 8.437853325737866 ], [ 126.054166666666688, 8.4375 ], [ 126.05662180582685, 8.437142266167553 ], [ 126.066313340928843, 8.427424452039949 ], [ 126.066666666666691, 8.420833333333352 ], [ 126.068877156575539, 8.421400621202276 ], [ 126.074253336588569, 8.425567287868942 ], [ 126.10221048990887, 8.424432712131095 ], [ 126.114456176757841, 8.413067287868943 ], [ 126.123043823242213, 8.411932712131096 ], [ 126.12695617675783, 8.408900621202275 ], [ 126.132750447591164, 8.407413736979185 ], [ 126.141099378797762, 8.398043823242206 ], [ 126.142575920952709, 8.39229024251304 ], [ 126.154166666666697, 8.391666666666685 ], [ 126.153599378797765, 8.389456176757831 ], [ 126.149432712131102, 8.384079996744809 ], [ 126.150567287868952, 8.376956176757831 ], [ 126.153599378797765, 8.373043823242206 ], [ 126.154733954535615, 8.368622843424497 ], [ 126.161932712131104, 8.360543823242207 ], [ 126.163067287868941, 8.347789510091165 ], [ 126.167233954535618, 8.342413330078143 ], [ 126.166049533420164, 8.317577446831615 ], [ 126.1625, 8.316666666666684 ], [ 126.151956176757835, 8.316099378797761 ], [ 126.148043823242205, 8.313067287868941 ], [ 126.143622843424509, 8.311932712131094 ], [ 126.135414123535185, 8.304618326822935 ], [ 126.123043823242213, 8.316099378797761 ], [ 126.113714938693604, 8.317233954535608 ], [ 126.1125, 8.3125 ], [ 126.112146674262178, 8.310075547960087 ], [ 126.108686659071196, 8.306591118706615 ], [ 126.108333333333363, 8.304166666666685 ], [ 126.104774136013475, 8.303253173828143 ], [ 126.104166666666686, 8.2875 ], [ 126.104827880859403, 8.280066257052969 ], [ 126.108333333333363, 8.279166666666685 ], [ 126.108686659071196, 8.276742214626754 ], [ 126.112146674262178, 8.273257785373282 ], [ 126.112853325737873, 8.264242214626753 ], [ 126.132980007595506, 8.244091118706613 ], [ 126.133333333333354, 8.241666666666685 ], [ 126.136649068196633, 8.240815904405398 ], [ 126.1375, 8.2375 ], [ 126.1375, 8.229166666666684 ], [ 126.133994547526072, 8.2282670762804 ], [ 126.133333333333354, 8.220833333333351 ], [ 126.132980007595506, 8.214242214626754 ], [ 126.124646674262181, 8.205882432725712 ], [ 126.125353325737876, 8.185075547960086 ], [ 126.128813340928843, 8.181591118706613 ], [ 126.129166666666691, 8.179166666666683 ], [ 126.144807434082054, 8.178563435872412 ], [ 126.157766045464427, 8.16471048990887 ], [ 126.15925309922963, 8.158916219075538 ], [ 126.169896104600724, 8.149432712131093 ], [ 126.185543823242213, 8.15056728786894 ], [ 126.189594692654097, 8.1537068684896 ], [ 126.201956176757832, 8.142233954535607 ], [ 126.207709757487009, 8.14075758192276 ], [ 126.208333333333357, 8.129166666666682 ], [ 126.210788472493519, 8.128808932834218 ], [ 126.220480007595512, 8.119091118706613 ], [ 126.221186659071208, 8.110075547960086 ], [ 126.232980007595515, 8.09825778537328 ], [ 126.233333333333363, 8.095833333333349 ], [ 126.233686659071211, 8.085075547960086 ], [ 126.237853325737873, 8.080879720052099 ], [ 126.237146674262178, 8.072575547960085 ], [ 126.23334791395402, 8.06875 ], [ 126.237853325737873, 8.064213053385433 ], [ 126.237146674262178, 8.047575547960085 ], [ 126.233686659071211, 8.044091118706612 ], [ 126.232980007595515, 8.039242214626752 ], [ 126.229519992404533, 8.03575778537328 ], [ 126.229166666666686, 8.016666666666682 ], [ 126.235757785373295, 8.016313340928836 ], [ 126.239242214626756, 8.012853325737863 ], [ 126.25, 8.0125 ], [ 126.257433742947072, 8.011838785807306 ], [ 126.259232923719637, 8.004827880859391 ], [ 126.266666666666694, 8.004166666666682 ], [ 126.267019992404542, 8.001742214626752 ], [ 126.270480007595509, 7.998257785373279 ], [ 126.271186659071205, 7.993408881293418 ], [ 126.282980007595512, 7.981591118706612 ], [ 126.28333333333336, 7.979166666666682 ], [ 126.285543823242207, 7.978599378797774 ], [ 126.289456176757838, 7.975567287868955 ], [ 126.29911261664499, 7.974291483561229 ], [ 126.300567287868944, 7.968622843424511 ], [ 126.308900621202284, 7.959270562066003 ], [ 126.307766045464433, 7.956122843424509 ], [ 126.304733954535621, 7.952210489908885 ], [ 126.30359937879777, 7.947789510091177 ], [ 126.29526604546443, 7.93843722873267 ], [ 126.296400621202281, 7.922789510091176 ], [ 126.299531216091609, 7.91875 ], [ 126.295568678114179, 7.913637118869389 ], [ 126.303770785861573, 7.911532253689266 ], [ 126.307873535156276, 7.906238640679284 ], [ 126.296400621202281, 7.893877156575551 ], [ 126.29526604546443, 7.889456176757843 ], [ 126.288067287868955, 7.881377156575551 ], [ 126.286932712131104, 7.864456176757843 ], [ 126.283900621202278, 7.860543823242217 ], [ 126.282624816894554, 7.850887383355065 ], [ 126.279166666666697, 7.85 ], [ 126.267380608452711, 7.849261305067305 ], [ 126.266666666666694, 7.833333333333363 ], [ 126.251742214626759, 7.832980007595516 ], [ 126.248257785373283, 7.829519992404544 ], [ 126.243408881293433, 7.82881334092885 ], [ 126.239924452039958, 7.825353325737877 ], [ 126.230908881293431, 7.824646674262183 ], [ 126.210757785373289, 7.804519992404543 ], [ 126.204166666666694, 7.804166666666696 ], [ 126.203813340928846, 7.780908881293432 ], [ 126.200353325737865, 7.77742445203996 ], [ 126.2, 7.75 ], [ 126.20331573486331, 7.749149068196644 ], [ 126.204733954535612, 7.743622843424508 ], [ 126.207766045464439, 7.739710489908884 ], [ 126.208333333333357, 7.7375 ], [ 126.208686659071205, 7.726742214626765 ], [ 126.212146674262172, 7.723257785373293 ], [ 126.212853325737868, 7.710075547960098 ], [ 126.216313340928849, 7.706591118706626 ], [ 126.217019992404545, 7.701742214626766 ], [ 126.221186659071208, 7.697546217176678 ], [ 126.220480007595512, 7.680908881293432 ], [ 126.217019992404545, 7.677424452039959 ], [ 126.216313340928849, 7.672575547960098 ], [ 126.212853325737868, 7.669091118706626 ], [ 126.2125, 7.658333333333362 ], [ 126.210075547960088, 7.657980007595515 ], [ 126.206591118706626, 7.654519992404543 ], [ 126.193408881293422, 7.653813340928847 ], [ 126.181591118706621, 7.642019992404542 ], [ 126.175, 7.641666666666695 ], [ 126.174432712131093, 7.614456176757841 ], [ 126.17130211724178, 7.610416666666695 ], [ 126.174432712131093, 7.606377156575549 ], [ 126.175661214192729, 7.592566257052979 ], [ 126.182482401529967, 7.590815734863309 ], [ 126.183900621202284, 7.585289510091174 ], [ 126.186932712131096, 7.581377156575549 ], [ 126.188067287868947, 7.57695617675784 ], [ 126.199432712131099, 7.564710489908882 ], [ 126.200655958387614, 7.550959777832059 ], [ 126.206122843424509, 7.546400621202284 ], [ 126.210543823242205, 7.545266045464437 ], [ 126.214456176757835, 7.542233954535618 ], [ 126.22083333333336, 7.541666666666694 ], [ 126.225, 7.541666666666694 ], [ 126.225353325737871, 7.539242214626764 ], [ 126.237146674262178, 7.527424452039958 ], [ 126.2375, 7.525 ], [ 126.234184265136747, 7.524149068196643 ], [ 126.23276604546443, 7.518622843424506 ], [ 126.229733954535618, 7.514710489908881 ], [ 126.228599378797767, 7.510289510091173 ], [ 126.221400621202278, 7.502210489908881 ], [ 126.22083333333336, 7.5 ], [ 126.220480007595512, 7.49340888129343 ], [ 126.212853325737868, 7.485757785373291 ], [ 126.212146674262172, 7.480908881293431 ], [ 126.207980007595509, 7.476712883843343 ], [ 126.20868920220272, 7.468378533257406 ], [ 126.214242214626765, 7.462853325737875 ], [ 126.216666666666697, 7.4625 ], [ 126.217019992404545, 7.460075547960097 ], [ 126.220480007595512, 7.456591118706624 ], [ 126.221186659071208, 7.451742214626763 ], [ 126.228813340928838, 7.444091118706623 ], [ 126.229166666666686, 7.441666666666693 ], [ 126.229166666666686, 7.4375 ], [ 126.205083719889345, 7.436907111273898 ], [ 126.203599378797762, 7.431122843424506 ], [ 126.195250447591164, 7.421753099229628 ], [ 126.191666666666691, 7.42083333333336 ], [ 126.192019992404539, 7.397575547960096 ], [ 126.195480007595506, 7.394091118706624 ], [ 126.196186659071202, 7.380908881293429 ], [ 126.200353325737865, 7.376712883843343 ], [ 126.199646674262169, 7.364242214626762 ], [ 126.196186659071202, 7.36075778537329 ], [ 126.195833333333354, 7.35 ], [ 126.196186659071202, 7.322575547960096 ], [ 126.19998541937936, 7.31875 ], [ 126.196186659071202, 7.314924452039957 ], [ 126.195833333333354, 7.291666666666693 ], [ 126.192375183105497, 7.290779283311657 ], [ 126.191099378797773, 7.281122843424505 ], [ 126.188067287868947, 7.27721048990888 ], [ 126.186932712131096, 7.274011908637178 ], [ 126.199432712131099, 7.260543823242212 ], [ 126.2, 7.258333333333359 ], [ 126.2, 7.254166666666692 ], [ 126.193622843424507, 7.253599378797768 ], [ 126.185543823242213, 7.246400621202282 ], [ 126.180017598470073, 7.244982401529973 ], [ 126.17859937879777, 7.239456176757837 ], [ 126.17408057318795, 7.234037611219643 ], [ 126.164456176757838, 7.232766045464435 ], [ 126.154869588216172, 7.224070739746119 ], [ 126.153599378797765, 7.214456176757837 ], [ 126.146400621202275, 7.206377156575545 ], [ 126.145833333333357, 7.204166666666691 ], [ 126.142517598470079, 7.205017598470077 ], [ 126.141666666666694, 7.208333333333359 ], [ 126.139242214626762, 7.208686659071205 ], [ 126.133691406250023, 7.214209832085528 ], [ 126.133333333333354, 7.216666666666692 ], [ 126.132766045464436, 7.218877156575546 ], [ 126.12973395453561, 7.222789510091171 ], [ 126.128599378797759, 7.227210489908879 ], [ 126.115722147623714, 7.240976291232665 ], [ 126.105381605360265, 7.242233954535616 ], [ 126.103599378797767, 7.235289510091171 ], [ 126.099040222167986, 7.229822625054279 ], [ 126.091666666666683, 7.229166666666692 ], [ 126.091099378797765, 7.243877156575547 ], [ 126.088067287868952, 7.247789510091171 ], [ 126.086649068196635, 7.253315734863307 ], [ 126.081122843424495, 7.254733954535616 ], [ 126.077210489908879, 7.257766045464435 ], [ 126.075, 7.258333333333359 ], [ 126.072575547960099, 7.258686659071206 ], [ 126.069091118706623, 7.262146674262178 ], [ 126.0625, 7.2625 ], [ 126.061932712131096, 7.273043823242213 ], [ 126.058795166015642, 7.277092149522595 ], [ 126.066099378797759, 7.285289510091172 ], [ 126.06723395453561, 7.289710489908879 ], [ 126.070364549424937, 7.29375 ], [ 126.06723395453561, 7.297789510091171 ], [ 126.066005452473988, 7.311600409613741 ], [ 126.0625, 7.3125 ], [ 126.063067287868947, 7.327210489908881 ], [ 126.066099378797759, 7.331122843424505 ], [ 126.067375183105497, 7.340779283311658 ], [ 126.073043823242216, 7.342233954535616 ], [ 126.081122843424495, 7.349432712131103 ], [ 126.085543823242205, 7.35056728786895 ], [ 126.089456176757835, 7.353599378797769 ], [ 126.091666666666683, 7.354166666666693 ], [ 126.091099378797765, 7.37721048990888 ], [ 126.088067287868952, 7.381122843424505 ], [ 126.086932712131102, 7.414710489908881 ], [ 126.083900621202275, 7.418622843424506 ], [ 126.082624816894551, 7.428279283311658 ], [ 126.079166666666708, 7.429166666666694 ], [ 126.072575547960113, 7.429519992404541 ], [ 126.069091118706638, 7.432980007595512 ], [ 126.043408881293445, 7.433686659071207 ], [ 126.035757785373306, 7.441313340928846 ], [ 126.029166666666711, 7.441666666666693 ], [ 126.028279283311676, 7.445124816894558 ], [ 126.017554050021744, 7.446541849772162 ], [ 126.016666666666708, 7.45 ], [ 126.01631334092886, 7.460757785373291 ], [ 126.008686659071216, 7.46840888129343 ], [ 126.007980007595521, 7.477424452039958 ], [ 126.004519992404553, 7.480908881293431 ], [ 126.004166666666706, 7.483333333333361 ], [ 126.003599378797787, 7.502210489908881 ], [ 126.000567287868961, 7.506122843424507 ], [ 125.99943271213111, 7.513246663411486 ], [ 126.003599378797787, 7.518622843424506 ], [ 126.004733954535624, 7.521579996744819 ], [ 126.000567287868961, 7.526956176757841 ], [ 125.99943271213111, 7.531377156575548 ], [ 125.996400621202298, 7.535289510091173 ], [ 125.995266045464447, 7.539710489908882 ], [ 125.992233954535635, 7.543622843424506 ], [ 125.991099378797784, 7.548043823242216 ], [ 125.986580403645874, 7.55346238878041 ], [ 125.976956176757852, 7.554733954535617 ], [ 125.964710489908896, 7.566099378797771 ], [ 125.955054050021744, 7.567375183105497 ], [ 125.953599378797776, 7.573043823242216 ], [ 125.946400621202301, 7.581122843424508 ], [ 125.94526604546445, 7.589710489908882 ], [ 125.942233954535624, 7.593622843424507 ], [ 125.941099378797787, 7.607118394639786 ], [ 125.949392361111151, 7.609246656629802 ], [ 125.95, 7.625 ], [ 125.953315904405414, 7.625850931803414 ], [ 125.954166666666694, 7.629166666666695 ], [ 125.953599378797762, 7.635543823242216 ], [ 125.95056728786895, 7.639456176757841 ], [ 125.949432712131099, 7.655103895399334 ], [ 125.957766045464425, 7.664456176757842 ], [ 125.958900621202275, 7.677210489908883 ], [ 125.966204833984392, 7.685407850477459 ], [ 125.963067287868938, 7.689456176757841 ], [ 125.961932712131102, 7.711285061306453 ], [ 125.970094638400624, 7.713379753960533 ], [ 125.971400621202278, 7.72157999674482 ], [ 125.967233954535615, 7.726956176757842 ], [ 125.966666666666711, 7.733333333333363 ], [ 125.967019992404531, 7.735757785373293 ], [ 125.974646674262175, 7.743408881293432 ], [ 125.975353325737871, 7.756591118706627 ], [ 125.982980007595515, 7.764242214626766 ], [ 125.983686659071196, 7.781591118706627 ], [ 125.987146674262178, 7.785075547960099 ], [ 125.987853325737873, 7.78992445203996 ], [ 125.995480007595503, 7.797575547960099 ], [ 125.996186659071199, 7.80242445203996 ], [ 126.007980007595506, 7.814242214626766 ], [ 126.008333333333354, 7.820833333333363 ], [ 126.005017598470076, 7.821684265136748 ], [ 126.003599378797759, 7.827210489908884 ], [ 126.000567287868947, 7.831122843424509 ], [ 125.999432712131096, 7.842413330078156 ], [ 126.003697882758274, 7.847916666666697 ], [ 126.000567287868947, 7.851956176757843 ], [ 126.0, 7.870833333333364 ], [ 125.993673197428407, 7.871450975206193 ], [ 125.98416510687936, 7.879701741536488 ], [ 125.982530721028667, 7.890931532118087 ], [ 125.968673197428402, 7.892284308539526 ], [ 125.964660135904964, 7.895215691460534 ], [ 125.9625, 7.895833333333364 ], [ 125.958333333333371, 7.895833333333364 ], [ 125.95771586100264, 7.889506530761749 ], [ 125.954784138997439, 7.885493469238312 ], [ 125.953549194335977, 7.881173197428415 ], [ 125.946450805664099, 7.872993469238311 ], [ 125.945215861002637, 7.868673197428416 ], [ 125.938117472330759, 7.860493469238311 ], [ 125.936782836914105, 7.846819559733103 ], [ 125.929280598958371, 7.844674513075117 ], [ 125.925617472330771, 7.839660135904978 ], [ 125.924382527669309, 7.835339864095082 ], [ 125.921450805664094, 7.831326802571644 ], [ 125.920215861002646, 7.827006530761748 ], [ 125.917284138997431, 7.822993469238311 ], [ 125.916049194335969, 7.797839864095081 ], [ 125.913117472330768, 7.793826802571644 ], [ 125.911882527669306, 7.789506530761749 ], [ 125.904784138997428, 7.781326802571645 ], [ 125.903372531467056, 7.771627468533016 ], [ 125.892354668511317, 7.770023769802547 ], [ 125.891666666666708, 7.758333333333363 ], [ 125.8875, 7.758333333333363 ], [ 125.887146674262183, 7.760757785373293 ], [ 125.883686659071216, 7.764242214626766 ], [ 125.883333333333368, 7.770833333333362 ], [ 125.876069810655423, 7.771479458279109 ], [ 125.87443271213111, 7.775746663411487 ], [ 125.878599378797787, 7.781122843424509 ], [ 125.879733954535624, 7.789710489908884 ], [ 125.88276604546445, 7.793622843424509 ], [ 125.884184095594662, 7.799149068196645 ], [ 125.891010538737021, 7.80090094672312 ], [ 125.892233954535627, 7.815451727973119 ], [ 125.8875, 7.816666666666697 ], [ 125.881122843424521, 7.81723395453562 ], [ 125.873043823242227, 7.824432712131106 ], [ 125.867517428927982, 7.825850931803416 ], [ 125.866666666666703, 7.829166666666696 ], [ 125.859232923719659, 7.829827880859405 ], [ 125.858333333333377, 7.833333333333363 ], [ 125.855908881293445, 7.832980007595516 ], [ 125.850358072916706, 7.827456834581193 ], [ 125.849646674262189, 7.822575547960099 ], [ 125.844120279947958, 7.81702151828345 ], [ 125.8375, 7.816666666666697 ], [ 125.825776502821213, 7.815946790907148 ], [ 125.825, 7.808333333333363 ], [ 125.822865125868091, 7.80769059922963 ], [ 125.818801540798646, 7.804809400770429 ], [ 125.810365125868088, 7.803523932562964 ], [ 125.806301540798643, 7.800642734103763 ], [ 125.801447889539972, 7.799357265896298 ], [ 125.7993570963542, 7.806301710340742 ], [ 125.796476236979203, 7.810364956325984 ], [ 125.795190429687537, 7.814635043674075 ], [ 125.787998792860279, 7.823032972547773 ], [ 125.783011542426252, 7.825642734103763 ], [ 125.775427924262189, 7.820265875922338 ], [ 125.759074571397605, 7.82157982720272 ], [ 125.757690429687543, 7.839635043674075 ], [ 125.754809570312531, 7.843698289659319 ], [ 125.752916802300376, 7.849984741210967 ], [ 125.74796820746532, 7.846476067437096 ], [ 125.739531792534763, 7.845190599229631 ], [ 125.735410563151078, 7.842268371582062 ], [ 125.722968207465314, 7.853523932562965 ], [ 125.714531792534757, 7.85480940077043 ], [ 125.706301540798648, 7.861857265896298 ], [ 125.697865125868091, 7.863142734103763 ], [ 125.693801540798646, 7.866023932562964 ], [ 125.684347534179722, 7.867464531792566 ], [ 125.68269042968754, 7.872968377007409 ], [ 125.679809570312528, 7.877031622992652 ], [ 125.679166666666703, 7.879166666666697 ], [ 125.675, 7.879166666666697 ], [ 125.675850762261319, 7.882482401529979 ], [ 125.679166666666703, 7.883333333333363 ], [ 125.678813340928855, 7.889924452039961 ], [ 125.671186659071211, 7.8975755479601 ], [ 125.670480007595515, 7.902424452039961 ], [ 125.667019992404548, 7.905908881293433 ], [ 125.666313340928852, 7.923257785373295 ], [ 125.662853325737885, 7.926742214626767 ], [ 125.662146674262189, 7.948257785373295 ], [ 125.658686659071222, 7.951742214626767 ], [ 125.657980007595526, 7.976712883843347 ], [ 125.662146674262189, 7.980908881293434 ], [ 125.6625, 7.991666666666697 ], [ 125.659184095594654, 7.992517598470084 ], [ 125.657766045464442, 7.998043823242218 ], [ 125.653770616319477, 8.003198920355935 ], [ 125.647789510091187, 8.004733954535622 ], [ 125.643877156575556, 8.007766045464441 ], [ 125.638161214192749, 8.009232923719649 ], [ 125.6375, 8.016666666666698 ], [ 125.637146674262183, 8.023257785373296 ], [ 125.631265936957504, 8.029168023003503 ], [ 125.627424452039961, 8.025353325737878 ], [ 125.618408881293433, 8.024646674262184 ], [ 125.610757785373295, 8.017019992404546 ], [ 125.6041666666667, 8.016666666666682 ], [ 125.603394232855933, 8.013386366102463 ], [ 125.599000718858548, 8.012017991807756 ], [ 125.59375, 8.016270785861577 ], [ 125.589748128255238, 8.013029479980499 ], [ 125.566666666666706, 8.0125 ], [ 125.552006361219654, 8.013117641872862 ], [ 125.547993638780412, 8.016049024793869 ], [ 125.542435031467051, 8.017638312445778 ], [ 125.540864054362018, 8.028431532118088 ], [ 125.527006361219648, 8.029784308539528 ], [ 125.522910224066877, 8.032776726616785 ], [ 125.514589775933189, 8.025556606716611 ], [ 125.510493638780417, 8.028549024793868 ], [ 125.503697374131974, 8.029784308539528 ], [ 125.497993638780414, 8.025617641872861 ], [ 125.493673027886317, 8.024382358127202 ], [ 125.489660305447089, 8.021450975206195 ], [ 125.478697374131983, 8.020215691460535 ], [ 125.472993638780423, 8.024382358127202 ], [ 125.47083333333336, 8.025 ], [ 125.464242214626765, 8.024646674262184 ], [ 125.45869140625004, 8.019123501247861 ], [ 125.458333333333371, 8.016666666666698 ], [ 125.451742214626776, 8.017019992404546 ], [ 125.444091118706638, 8.024646674262184 ], [ 125.435075547960096, 8.025353325737878 ], [ 125.431591118706635, 8.028813340928851 ], [ 125.426742214626771, 8.029519992404545 ], [ 125.423257785373295, 8.032980007595517 ] ] ] } }
]
}
