{
"type": "FeatureCollection",
"name": "cagayan_basin_hybas_au_lev12",
"crs": { "type": "name", "properties": { "name": "urn:ogc:def:crs:OGC:1.3:CRS84" } },
"features": [
{ "type": "Feature", "properties": { "HYBAS_ID": 5120030230, "NEXT_DOWN": 0, "NEXT_SINK": 5120030230, "MAIN_BAS": 5120030230, "DIST_SINK": 0.0, "DIST_MAIN": 0.0, "SUB_AREA": 108.0, "UP_AREA": 27711.9, "PFAF_ID": 524098101100, "ENDO": 0, "COAST": 0, "ORDER": 1, "SORT": 12591 }, "geometry": { "type": "Polygon", "coordinates": [ [ [ 121.168408881293431, 16.075353325737865 ], [ 121.154524400499156, 16.089212375217034 ], [ 121.154166666666697, 16.091666666666686 ], [ 121.130908881293436, 16.092019992404534 ], [ 121.127424452039961, 16.095480007595505 ], [ 121.125, 16.095833333333353 ], [ 121.118622843424504, 16.096400621202278 ], [ 121.114710489908887, 16.099432712131097 ], [ 121.10892605251739, 16.100917222764778 ], [ 121.108333333333363, 16.125 ], [ 121.107980007595515, 16.12742445203995 ], [ 121.104519992404548, 16.130908881293422 ], [ 121.1041666666667, 16.133333333333354 ], [ 121.101742214626768, 16.132980007595506 ], [ 121.098257785373292, 16.129519992404532 ], [ 121.085786946614618, 16.12881334092884 ], [ 121.081591118706626, 16.132980007595506 ], [ 121.073286946614616, 16.133686659071202 ], [ 121.069091118706623, 16.129519992404532 ], [ 121.060075547960096, 16.12881334092884 ], [ 121.056591118706621, 16.125353325737866 ], [ 121.052453613281287, 16.124646674262173 ], [ 121.048257785373295, 16.12881334092884 ], [ 121.043408881293431, 16.129519992404532 ], [ 121.039924452039955, 16.132980007595506 ], [ 121.035786946614607, 16.133686659071202 ], [ 121.031591118706629, 16.129519992404532 ], [ 121.0125, 16.129166666666702 ], [ 121.005908881293436, 16.12951999240455 ], [ 120.994091118706621, 16.141313340928857 ], [ 120.991666666666703, 16.141666666666687 ], [ 120.989242214626771, 16.141313340928857 ], [ 120.983689032660621, 16.135787794325122 ], [ 120.982980007595515, 16.126742214626773 ], [ 120.979519992404548, 16.123257785373301 ], [ 120.978813340928852, 16.118408881293437 ], [ 120.973291354709232, 16.112858920627207 ], [ 120.969120279947944, 16.112146674262188 ], [ 120.964924452039966, 16.116313340928855 ], [ 120.960075547960102, 16.117019992404551 ], [ 120.952424452039963, 16.124646674262188 ], [ 120.947575547960099, 16.125353325737883 ], [ 120.939924452039961, 16.132980007595521 ], [ 120.922575547960093, 16.133686659071216 ], [ 120.919091118706632, 16.137146674262191 ], [ 120.914953613281284, 16.137853325737883 ], [ 120.910757785373292, 16.133686659071216 ], [ 120.905908881293428, 16.132980007595521 ], [ 120.900358072916703, 16.127456834581199 ], [ 120.9, 16.125 ], [ 120.897575547960102, 16.125353325737866 ], [ 120.894091118706626, 16.12881334092884 ], [ 120.889242214626762, 16.129519992404532 ], [ 120.885757785373286, 16.132980007595506 ], [ 120.883333333333368, 16.133333333333354 ], [ 120.880017428927985, 16.134184095594637 ], [ 120.879166666666691, 16.1375 ], [ 120.878813340928843, 16.148257785373282 ], [ 120.875353325737876, 16.151742214626758 ], [ 120.875, 16.158333333333353 ], [ 120.871684095594645, 16.15918409559464 ], [ 120.870833333333366, 16.1625 ], [ 120.870833333333366, 16.191666666666688 ], [ 120.871684095594645, 16.194982571072067 ], [ 120.878315904405412, 16.196684095594637 ], [ 120.879733954535624, 16.202210489908875 ], [ 120.882766045464436, 16.206122843424499 ], [ 120.883900621202287, 16.217413330078145 ], [ 120.879733954535624, 16.222789510091168 ], [ 120.878599378797773, 16.23137715657554 ], [ 120.875458780924504, 16.23542921278214 ], [ 120.891099378797776, 16.251956176757833 ], [ 120.892233954535612, 16.264710489908875 ], [ 120.895266045464439, 16.268622843424499 ], [ 120.896400621202289, 16.273043823242208 ], [ 120.899432712131102, 16.276956176757835 ], [ 120.900567287868952, 16.281377156575541 ], [ 120.903599378797779, 16.285289510091168 ], [ 120.904733954535615, 16.289710489908874 ], [ 120.907864718967048, 16.29375 ], [ 120.904733954535615, 16.297789510091167 ], [ 120.903599378797779, 16.342413330078145 ], [ 120.907766045464442, 16.347789510091168 ], [ 120.908900621202292, 16.350937228732661 ], [ 120.900567287868952, 16.360289510091167 ], [ 120.899432712131102, 16.37304382324221 ], [ 120.892233954535612, 16.3811228434245 ], [ 120.890958319769993, 16.390779283311655 ], [ 120.88528951009117, 16.392233954535612 ], [ 120.881377156575553, 16.395266045464432 ], [ 120.879166666666691, 16.395833333333357 ], [ 120.879519992404539, 16.402424452039952 ], [ 120.882980007595521, 16.405908881293424 ], [ 120.883686659071216, 16.410046386718772 ], [ 120.879519992404539, 16.414242214626757 ], [ 120.878813340928843, 16.422550116644988 ], [ 120.895480007595509, 16.439242214626759 ], [ 120.895833333333357, 16.445833333333354 ], [ 120.895480007595509, 16.448257785373286 ], [ 120.892019992404542, 16.451742214626758 ], [ 120.891666666666694, 16.454166666666691 ], [ 120.891666666666694, 16.458333333333357 ], [ 120.891666666666694, 16.4625 ], [ 120.891099378797776, 16.477210489908877 ], [ 120.88806728786895, 16.481122843424501 ], [ 120.886932712131099, 16.511285061306445 ], [ 120.893877156575556, 16.513067287868946 ], [ 120.899032253689271, 16.517062717013911 ], [ 120.900567287868952, 16.523043823242212 ], [ 120.903599378797779, 16.526956176757835 ], [ 120.904733954535615, 16.54804382324221 ], [ 120.907766045464442, 16.551956176757834 ], [ 120.908900621202292, 16.563437228732663 ], [ 120.900567287868952, 16.57278951009117 ], [ 120.9, 16.579166666666691 ], [ 120.9, 16.583333333333357 ], [ 120.90833333333336, 16.583333333333357 ], [ 120.907715861002629, 16.622993638780407 ], [ 120.904784138997428, 16.627006361219642 ], [ 120.903372531467042, 16.636705864800369 ], [ 120.893673027886308, 16.638117472330752 ], [ 120.88966030544708, 16.641049194335963 ], [ 120.884141031901066, 16.642626953125024 ], [ 120.882715861002637, 16.650469292534748 ], [ 120.8868825276693, 16.656173027886307 ], [ 120.8875, 16.691666666666691 ], [ 120.883333333333368, 16.691666666666691 ], [ 120.882980007595521, 16.706591118706623 ], [ 120.879519992404539, 16.710075547960095 ], [ 120.879166666666691, 16.7125 ], [ 120.871663072374162, 16.713216145833357 ], [ 120.870228407118091, 16.721373833550373 ], [ 120.874395073784754, 16.726993815104191 ], [ 120.875907389322947, 16.732425944010441 ], [ 120.881339518229197, 16.733938259548637 ], [ 120.889493815104203, 16.741061740451414 ], [ 120.898006184895863, 16.74227159288197 ], [ 120.903508504231795, 16.746718682183186 ], [ 120.904771592881971, 16.773006184895859 ], [ 120.907728407118086, 16.776993815104191 ], [ 120.908938259548634, 16.783873833550373 ], [ 120.904771592881971, 16.789493815104191 ], [ 120.903561740451423, 16.802172851562524 ], [ 120.900604926215308, 16.80616048177086 ], [ 120.9, 16.825 ], [ 120.899100409613737, 16.828505452473983 ], [ 120.891666666666694, 16.829166666666691 ], [ 120.875778876410621, 16.82986450195315 ], [ 120.874255032009572, 16.84480319552954 ], [ 120.867631022135441, 16.846797688802109 ], [ 120.86570231119795, 16.853202311197943 ], [ 120.8625, 16.854166666666693 ], [ 120.861649237738746, 16.857482571072076 ], [ 120.858333333333363, 16.858333333333359 ], [ 120.858333333333363, 16.8625 ], [ 120.858938259548637, 16.868839518229194 ], [ 120.862683444552985, 16.873890855577283 ], [ 120.869925944010447, 16.875907389322943 ], [ 120.87143825954864, 16.881339518229193 ], [ 120.874395073784754, 16.885327148437526 ], [ 120.875604926215303, 16.893839518229193 ], [ 120.878561740451417, 16.897827148437525 ], [ 120.87977159288198, 16.906339518229192 ], [ 120.886895073784757, 16.914493815104194 ], [ 120.888104926215306, 16.918839518229191 ], [ 120.892110527886317, 16.924241807725721 ], [ 120.890873209635444, 16.932613796658011 ], [ 120.8769938151042, 16.933938259548636 ], [ 120.871609497070338, 16.938290066189261 ], [ 120.870228407118091, 16.94800618489586 ], [ 120.858938259548637, 16.960327148437528 ], [ 120.857728407118088, 16.981339518229195 ], [ 120.85398322211374, 16.986390855577284 ], [ 120.846470811631974, 16.988482666015653 ], [ 120.84583333333336, 17.008333333333361 ], [ 120.84668409559464, 17.011649237738741 ], [ 120.853315904405406, 17.013350762261311 ], [ 120.854733954535618, 17.018877156575549 ], [ 120.858729383680583, 17.024032253689263 ], [ 120.865815904405409, 17.02585076226131 ], [ 120.867233954535621, 17.031377156575548 ], [ 120.870266045464433, 17.035289510091172 ], [ 120.870833333333366, 17.0375 ], [ 120.870480007595518, 17.039924452039958 ], [ 120.867019992404536, 17.043408881293431 ], [ 120.866666666666703, 17.058333333333362 ], [ 120.873043823242213, 17.058900621202284 ], [ 120.876956176757844, 17.061932712131103 ], [ 120.882482571072075, 17.063350762261312 ], [ 120.883900621202287, 17.068877156575549 ], [ 120.886932712131099, 17.072789510091173 ], [ 120.88806728786895, 17.092413330078152 ], [ 120.883900621202287, 17.097789510091175 ], [ 120.882766045464436, 17.104913330078151 ], [ 120.886932712131099, 17.110289510091174 ], [ 120.88806728786895, 17.117413330078154 ], [ 120.883900621202287, 17.122789510091174 ], [ 120.882766045464436, 17.131377156575549 ], [ 120.879733954535624, 17.135289510091173 ], [ 120.878599378797773, 17.150746663411486 ], [ 120.882766045464436, 17.156122843424509 ], [ 120.883900621202287, 17.164710489908881 ], [ 120.886932712131099, 17.168622843424508 ], [ 120.8875, 17.179166666666696 ], [ 120.889710489908879, 17.179733954535617 ], [ 120.901956176757835, 17.191099378797773 ], [ 120.90769551595055, 17.192572360568604 ], [ 120.908900621202292, 17.210543823242215 ], [ 120.911932712131104, 17.214456176757842 ], [ 120.9125, 17.220833333333363 ], [ 120.912853325737871, 17.252424452039961 ], [ 120.916313340928852, 17.255908881293433 ], [ 120.917019992404548, 17.26492445203996 ], [ 120.924646674262178, 17.272575547960098 ], [ 120.925, 17.2875 ], [ 120.927424452039958, 17.287853325737878 ], [ 120.932978990342917, 17.293380228678416 ], [ 120.933333333333366, 17.304166666666696 ], [ 120.936876424153681, 17.305075920952721 ], [ 120.9375, 17.316666666666695 ], [ 120.941021050347246, 17.317570156521295 ], [ 120.953599378797776, 17.331122843424509 ], [ 120.954733954535627, 17.335543823242219 ], [ 120.970266045464442, 17.351956176757842 ], [ 120.971400621202292, 17.360543823242217 ], [ 120.974432712131104, 17.364456176757841 ], [ 120.975850762261317, 17.369982401529978 ], [ 120.981377156575547, 17.371400621202287 ], [ 120.989456176757841, 17.378599378797773 ], [ 121.0, 17.379166666666698 ], [ 121.004166666666691, 17.379166666666698 ], [ 121.004166666666691, 17.391666666666698 ], [ 121.004166666666691, 17.395833333333364 ], [ 121.003813340928843, 17.402424452039959 ], [ 121.000353325737876, 17.405908881293435 ], [ 120.999646674262181, 17.419091118706628 ], [ 120.996186659071213, 17.422575547960101 ], [ 120.995833333333366, 17.425 ], [ 120.995833333333366, 17.429166666666696 ], [ 121.002424452039961, 17.429519992404543 ], [ 121.0079752604167, 17.435043165418868 ], [ 121.008686659071216, 17.439924452039961 ], [ 121.012146674262183, 17.443408881293433 ], [ 121.012853325737879, 17.447546217176679 ], [ 121.008686659071216, 17.451742214626766 ], [ 121.007980007595521, 17.460046217176679 ], [ 121.012146674262183, 17.464242214626765 ], [ 121.012853325737879, 17.468383449978329 ], [ 120.996186659071213, 17.485075547960101 ], [ 120.995833333333366, 17.491666666666696 ], [ 120.996805148654545, 17.495065138075116 ], [ 121.00632697211374, 17.496450975206194 ], [ 121.010339694552982, 17.4993823581272 ], [ 121.018826972113743, 17.500617641872861 ], [ 121.022839694552985, 17.50354902479387 ], [ 121.027160305447083, 17.504784308539527 ], [ 121.039506361219651, 17.516049024793869 ], [ 121.047993638780412, 17.517284308539526 ], [ 121.052006361219654, 17.520215691460535 ], [ 121.061764865451423, 17.521635945638053 ], [ 121.063117472330759, 17.535493469238311 ], [ 121.066049194335974, 17.539506530761749 ], [ 121.067593044704893, 17.544906955295168 ], [ 121.072993638780417, 17.546450975206195 ], [ 121.077083333333363, 17.549438476562532 ], [ 121.081173027886308, 17.546450975206195 ], [ 121.1041666666667, 17.545833333333363 ], [ 121.104519992404548, 17.548257785373295 ], [ 121.112486097547773, 17.556249321831629 ], [ 121.10834791395402, 17.560416666666697 ], [ 121.112146674262178, 17.564242214626766 ], [ 121.112855699327284, 17.573287794325118 ], [ 121.118408881293433, 17.57881334092885 ], [ 121.120833333333366, 17.579166666666698 ], [ 121.120215861002634, 17.589660135904978 ], [ 121.112203301323817, 17.598893568250901 ], [ 121.106173027886314, 17.600617641872862 ], [ 121.102160305447086, 17.603549024793868 ], [ 121.092417060004365, 17.604967074924076 ], [ 121.091049194335966, 17.617403327094216 ], [ 121.099382527669306, 17.627006530761751 ], [ 121.1, 17.629166666666698 ], [ 121.099646674262189, 17.635757785373297 ], [ 121.092019992404545, 17.643408881293436 ], [ 121.091666666666697, 17.6625 ], [ 121.098257785373292, 17.662853325737878 ], [ 121.118408881293433, 17.682980007595518 ], [ 121.120833333333366, 17.683333333333366 ], [ 121.121186659071213, 17.694091118706631 ], [ 121.124646674262181, 17.697575547960103 ], [ 121.125, 17.720833333333367 ], [ 121.125, 17.725 ], [ 121.121541680230067, 17.725887383355069 ], [ 121.120266045464447, 17.735543823242221 ], [ 121.117233954535621, 17.739456176757844 ], [ 121.11609937879777, 17.756377156575553 ], [ 121.113067287868958, 17.76028951009118 ], [ 121.111932712131107, 17.768877156575552 ], [ 121.108900621202281, 17.772789510091179 ], [ 121.107766045464444, 17.777210489908889 ], [ 121.103599378797767, 17.782586669921908 ], [ 121.105416531033015, 17.787322658962708 ], [ 121.110289510091178, 17.791099378797774 ], [ 121.1125, 17.7916666666667 ], [ 121.116666666666703, 17.7916666666667 ], [ 121.117527601454029, 17.788655938042567 ], [ 121.121302625868083, 17.786882358127205 ], [ 121.128008015950556, 17.791780598958368 ], [ 121.129784138997422, 17.797993469238314 ], [ 121.132715861002637, 17.802006530761751 ], [ 121.133950805664099, 17.806326802571647 ], [ 121.1368825276693, 17.810339864095084 ], [ 121.138117472330762, 17.822993469238316 ], [ 121.14521586100264, 17.83117319742842 ], [ 121.146450805664088, 17.835493469238315 ], [ 121.150113932291703, 17.840507846408453 ], [ 121.156326972113746, 17.842284308539529 ], [ 121.164506361219651, 17.849382358127205 ], [ 121.167135959201417, 17.850617641872862 ], [ 121.172839694552977, 17.846450975206196 ], [ 121.184070163302977, 17.845215691460538 ], [ 121.193673027886319, 17.853549024793871 ], [ 121.197993638780417, 17.854784308539529 ], [ 121.202083333333363, 17.857771809895866 ], [ 121.206173027886322, 17.854784308539529 ], [ 121.21049363878042, 17.853549024793871 ], [ 121.214506361219648, 17.850617641872862 ], [ 121.217282443576423, 17.849382358127205 ], [ 121.224295722113752, 17.854991488986578 ], [ 121.225617472330754, 17.872993469238317 ], [ 121.232715861002632, 17.881173197428421 ], [ 121.233950805664094, 17.889660135904982 ], [ 121.236882527669309, 17.89367319742842 ], [ 121.238117472330757, 17.896302456325991 ], [ 121.233950805664094, 17.902006530761753 ], [ 121.232715861002632, 17.915667046441005 ], [ 121.24509819878476, 17.917469278971389 ], [ 121.245833333333366, 17.925 ], [ 121.2625, 17.925 ], [ 121.265815904405414, 17.924149068196648 ], [ 121.267233954535627, 17.918622843424515 ], [ 121.274432712131102, 17.910543823242222 ], [ 121.276137288411491, 17.903902011447517 ], [ 121.281122843424512, 17.907766045464445 ], [ 121.302210489908887, 17.908900621202292 ], [ 121.318622843424507, 17.924432712131111 ], [ 121.320833333333368, 17.925 ], [ 121.321400621202287, 17.927210489908873 ], [ 121.324432712131113, 17.931122843424497 ], [ 121.325850762261311, 17.936649237738735 ], [ 121.331377156575556, 17.938067287868943 ], [ 121.339456176757849, 17.945266045464429 ], [ 121.34498257107208, 17.946684095594637 ], [ 121.346400621202292, 17.952210489908872 ], [ 121.349432712131104, 17.956122843424499 ], [ 121.350887383355072, 17.961791653103319 ], [ 121.361612616645004, 17.963208346896721 ], [ 121.363067287868958, 17.968877156575537 ], [ 121.367062717013923, 17.974032253689256 ], [ 121.373043823242227, 17.975567287868941 ], [ 121.386764865451426, 17.988402642144116 ], [ 121.38806728786895, 17.99657999674481 ], [ 121.383900621202287, 18.00195617675783 ], [ 121.382766045464436, 18.009358723958353 ], [ 121.403599378797779, 18.031122843424498 ], [ 121.404166666666697, 18.033333333333353 ], [ 121.4166666666667, 18.033333333333353 ], [ 121.419091118706632, 18.033686659071201 ], [ 121.426742214626771, 18.041313340928838 ], [ 121.433333333333366, 18.041666666666686 ], [ 121.433900621202284, 18.048043823242207 ], [ 121.441099378797773, 18.056122843424497 ], [ 121.442233954535624, 18.060543823242206 ], [ 121.44526604546445, 18.064456176757833 ], [ 121.446400621202287, 18.073043823242209 ], [ 121.463435194227458, 18.090964423285609 ], [ 121.474112616645002, 18.092375013563387 ], [ 121.475899590386319, 18.099338785807312 ], [ 121.489710489908887, 18.100567287868945 ], [ 121.493622843424518, 18.103599378797764 ], [ 121.498043823242227, 18.104733954535611 ], [ 121.503198920355942, 18.108729383680576 ], [ 121.504166666666706, 18.1125 ], [ 121.508333333333368, 18.1125 ], [ 121.514924452039963, 18.112853325737866 ], [ 121.522575547960102, 18.120480007595507 ], [ 121.527424452039966, 18.121186659071199 ], [ 121.530908881293442, 18.124646674262173 ], [ 121.5375, 18.125 ], [ 121.538142903645863, 18.127134874131965 ], [ 121.541023763020874, 18.131198459201407 ], [ 121.543114556206632, 18.138142903645853 ], [ 121.547968207465317, 18.136857096354188 ], [ 121.55384487575958, 18.132690429687521 ], [ 121.556301540798643, 18.133976236979187 ], [ 121.560365125868088, 18.136857096354188 ], [ 121.568801540798646, 18.138142903645853 ], [ 121.572865125868091, 18.141023763020854 ], [ 121.586728583441868, 18.142438083224846 ], [ 121.588142903645874, 18.15630154079863 ], [ 121.595190429687534, 18.164531792534742 ], [ 121.597095065646741, 18.17085673014325 ], [ 121.60203179253476, 18.174357096354186 ], [ 121.6041666666667, 18.175 ], [ 121.603549194335969, 18.18966030544707 ], [ 121.600617472330768, 18.193673027886305 ], [ 121.599382527669306, 18.196639675564256 ], [ 121.611882527669309, 18.210339694552971 ], [ 121.613294135199681, 18.220039198133701 ], [ 121.62430691189239, 18.221642049153665 ], [ 121.625617472330759, 18.242403496636307 ], [ 121.617284138997434, 18.252006361219639 ], [ 121.616049194335972, 18.258802625868078 ], [ 121.620271809895868, 18.264583333333356 ], [ 121.617284138997434, 18.268673027886305 ], [ 121.616049194335972, 18.277160305447069 ], [ 121.613117472330771, 18.281173027886304 ], [ 121.6125, 18.2875 ], [ 121.613067287868958, 18.289710489908874 ], [ 121.621416219075556, 18.299080403645853 ], [ 121.628315904405412, 18.300850762261305 ], [ 121.629733954535624, 18.306377156575543 ], [ 121.641099378797776, 18.3186228434245 ], [ 121.641666666666708, 18.325 ], [ 121.641666666666708, 18.329166666666687 ], [ 121.648257785373303, 18.329519992404535 ], [ 121.655908881293442, 18.337146674262176 ], [ 121.6625, 18.3375 ], [ 121.662853325737885, 18.335075547960091 ], [ 121.666313340928852, 18.331591118706619 ], [ 121.667019992404548, 18.326742214626758 ], [ 121.670480007595515, 18.323257785373286 ], [ 121.670833333333363, 18.316666666666688 ], [ 121.671186659071211, 18.310075547960089 ], [ 121.674646674262192, 18.306591118706617 ], [ 121.675353325737888, 18.301742214626756 ], [ 121.678813340928855, 18.298257785373284 ], [ 121.679519992404551, 18.293408881293423 ], [ 121.687146674262195, 18.285757785373285 ], [ 121.687853325737876, 18.280908881293424 ], [ 121.691313340928858, 18.277424452039952 ], [ 121.692019992404553, 18.268408881293425 ], [ 121.696186659071216, 18.264213053385436 ], [ 121.695480007595521, 18.251742214626756 ], [ 121.692019992404553, 18.248257785373283 ], [ 121.691313340928858, 18.243408881293423 ], [ 121.687853325737876, 18.239924452039951 ], [ 121.687146674262195, 18.226742214626757 ], [ 121.683686659071213, 18.223257785373285 ], [ 121.682980007595518, 18.218408881293424 ], [ 121.678813340928855, 18.214213053385436 ], [ 121.679519992404551, 18.210075547960091 ], [ 121.682980007595518, 18.206591118706619 ], [ 121.683333333333366, 18.2 ], [ 121.710506184895863, 18.199395073784743 ], [ 121.714493815104206, 18.196438259548632 ], [ 121.724215020073814, 18.195056491427973 ], [ 121.725443861219659, 18.186741807725713 ], [ 121.720228407118086, 18.179707166883702 ], [ 121.721438259548648, 18.176993815104186 ], [ 121.724395073784763, 18.173006184895854 ], [ 121.725604926215311, 18.168660481770853 ], [ 121.728561740451426, 18.164672851562521 ], [ 121.729771592881974, 18.160327148437521 ], [ 121.732728407118088, 18.156339518229188 ], [ 121.733938259548651, 18.151993815104188 ], [ 121.741061740451428, 18.143839518229186 ], [ 121.742271592881977, 18.139493815104188 ], [ 121.746438259548654, 18.133873833550368 ], [ 121.745228407118091, 18.126993815104186 ], [ 121.74219835069448, 18.122907172309048 ], [ 121.753561740451431, 18.110506184895854 ], [ 121.754166666666706, 18.108333333333352 ], [ 121.766666666666708, 18.108333333333352 ], [ 121.7875, 18.108333333333352 ], [ 121.7916666666667, 18.108333333333352 ], [ 121.792881605360279, 18.103599378797764 ], [ 121.798043823242224, 18.104733954535611 ], [ 121.801956176757855, 18.10776604546443 ], [ 121.807482571072086, 18.109184095594639 ], [ 121.809548272026944, 18.11723395453561 ], [ 121.82304382324223, 18.116099378797763 ], [ 121.828420003255246, 18.111932712131097 ], [ 121.831377156575556, 18.113067287868944 ], [ 121.839456176757849, 18.12026604546443 ], [ 121.853267076280417, 18.121494547526062 ], [ 121.855075751410624, 18.128543090820333 ], [ 121.866666666666703, 18.129166666666688 ], [ 121.882419840494833, 18.129774305555575 ], [ 121.884248860677118, 18.136901516384569 ], [ 121.904166666666697, 18.1375 ], [ 121.906377156575559, 18.136932712131095 ], [ 121.910289510091189, 18.133900621202276 ], [ 121.923043823242224, 18.132766045464429 ], [ 121.928420003255241, 18.128599378797762 ], [ 121.935543823242227, 18.12973395453561 ], [ 121.939456176757844, 18.132766045464429 ], [ 121.943877156575553, 18.133900621202276 ], [ 121.949253336588583, 18.138067287868942 ], [ 121.960543823242219, 18.136932712131095 ], [ 121.964456176757849, 18.133900621202276 ], [ 121.96998257107208, 18.132482571072067 ], [ 121.971801079644138, 18.125396050347241 ], [ 121.977083333333368, 18.121301947699671 ], [ 121.981122843424515, 18.124432712131096 ], [ 121.993877156575564, 18.125567287868943 ], [ 121.997789510091181, 18.128599378797762 ], [ 122.00221048990889, 18.12973395453561 ], [ 122.018622843424524, 18.145266045464432 ], [ 122.020833333333371, 18.145833333333353 ], [ 122.033333333333374, 18.145833333333353 ], [ 122.033686659071222, 18.139242214626755 ], [ 122.041313340928852, 18.131591118706616 ], [ 122.0416666666667, 18.129166666666688 ], [ 122.0416666666667, 18.120833333333351 ], [ 122.046501329210088, 18.119302707248298 ], [ 122.045061577691001, 18.087247212727899 ], [ 122.039583333333354, 18.091016981336843 ], [ 122.035443115234401, 18.088167995876773 ], [ 122.033333333333374, 18.0875 ], [ 122.033900621202278, 18.081122843424513 ], [ 122.036932712131104, 18.077210489908889 ], [ 122.038067287868941, 18.060289510091181 ], [ 122.045371500651058, 18.052092149522604 ], [ 122.041402011447502, 18.046970452202725 ], [ 122.045833333333377, 18.04583333333337 ], [ 122.04804382324221, 18.045266045464444 ], [ 122.051956176757841, 18.042233954535625 ], [ 122.061580573187953, 18.040962388780418 ], [ 122.06620161268448, 18.035421244303421 ], [ 122.063067287868947, 18.031377156575555 ], [ 122.061649068196644, 18.025850931803419 ], [ 122.056122843424504, 18.024432712131112 ], [ 122.043877156575547, 18.01306728786896 ], [ 122.036932712131104, 18.011285061306459 ], [ 122.038067287868941, 17.989456176757848 ], [ 122.050567287868944, 17.975988091362883 ], [ 122.049432712131093, 17.968622843424512 ], [ 122.046400621202281, 17.964710489908889 ], [ 122.04526604546443, 17.960289510091179 ], [ 122.033900621202278, 17.948043823242223 ], [ 122.03333333333336, 17.9375 ], [ 122.033333333333374, 17.933333333333369 ], [ 122.033900621202278, 17.926956176757848 ], [ 122.036932712131104, 17.923043823242221 ], [ 122.038161214192726, 17.909232923719653 ], [ 122.045437452528233, 17.907365587022603 ], [ 122.049432712131093, 17.902210489908889 ], [ 122.050618320041252, 17.880172559950122 ], [ 122.060289510091167, 17.871400621202291 ], [ 122.0625, 17.870833333333366 ], [ 122.062146674262181, 17.851742214626771 ], [ 122.058686659071199, 17.848257785373299 ], [ 122.057980007595503, 17.839242214626768 ], [ 122.050353325737873, 17.83159111870663 ], [ 122.049646674262178, 17.81424221462677 ], [ 122.046186659071196, 17.810757785373298 ], [ 122.045480007595515, 17.801742214626771 ], [ 122.037853325737871, 17.794091118706632 ], [ 122.037146674262175, 17.789242214626768 ], [ 122.033686659071208, 17.785757785373296 ], [ 122.033333333333374, 17.779166666666701 ], [ 122.033988104926237, 17.771806335449252 ], [ 122.043622843424501, 17.763067287868957 ], [ 122.049149068196641, 17.761649068196647 ], [ 122.050567287868944, 17.756122843424514 ], [ 122.05359937879777, 17.752210489908887 ], [ 122.055134412977452, 17.746229214138488 ], [ 122.060289510091167, 17.742233954535624 ], [ 122.065815734863307, 17.740815734863315 ], [ 122.066666666666691, 17.7375 ], [ 122.066313340928843, 17.726742214626768 ], [ 122.062853325737876, 17.723257785373296 ], [ 122.062145148383266, 17.710047912597688 ], [ 122.052424452039958, 17.700353325737879 ], [ 122.045833333333348, 17.7 ], [ 122.045833333333377, 17.6875 ], [ 122.046450975206184, 17.685339864095084 ], [ 122.04938235812719, 17.681326802571647 ], [ 122.050617641872847, 17.677006530761751 ], [ 122.053605143229191, 17.672916666666698 ], [ 122.04938235812719, 17.667135789659319 ], [ 122.050680541992207, 17.642477247450117 ], [ 122.062168884277369, 17.640805223253071 ], [ 122.066049024793855, 17.635493469238313 ], [ 122.067284308539513, 17.614506530761751 ], [ 122.070215691460533, 17.610493469238314 ], [ 122.071493191189262, 17.580169338650204 ], [ 122.079241265191001, 17.577954101562533 ], [ 122.075617641872853, 17.572993469238313 ], [ 122.075, 17.566666666666698 ], [ 122.074358961317301, 17.534149678548207 ], [ 122.064506530761747, 17.532715691460535 ], [ 122.056326802571633, 17.525617641872863 ], [ 122.050296698676235, 17.523893568250898 ], [ 122.042284308539521, 17.514660135904979 ], [ 122.0416666666667, 17.508333333333365 ], [ 122.042250569661476, 17.476037258572077 ], [ 122.051956176757841, 17.467233954535622 ], [ 122.05762481689456, 17.465779283311662 ], [ 122.058900621202284, 17.456122843424509 ], [ 122.066099378797759, 17.448043823242216 ], [ 122.06723395453561, 17.44362284342451 ], [ 122.070266045464436, 17.439710489908883 ], [ 122.071400621202287, 17.435289510091177 ], [ 122.07556728786895, 17.429913330078154 ], [ 122.074432712131099, 17.422789510091178 ], [ 122.071400621202287, 17.418877156575551 ], [ 122.070833333333368, 17.408333333333363 ], [ 122.077452087402364, 17.407978481716611 ], [ 122.087853325737868, 17.39754926893449 ], [ 122.087146674262172, 17.393408881293432 ], [ 122.082980007595509, 17.389212883843346 ], [ 122.083686659071205, 17.380908881293433 ], [ 122.087146674262172, 17.377424452039961 ], [ 122.087853325737868, 17.3725755479601 ], [ 122.091313340928849, 17.369091118706628 ], [ 122.09202219645185, 17.360048082139787 ], [ 122.110075547960093, 17.342019992404545 ], [ 122.116666666666688, 17.341666666666697 ], [ 122.116666666666688, 17.3375 ], [ 122.123257785373283, 17.337853325737875 ], [ 122.126742214626759, 17.341313340928849 ], [ 122.129166666666691, 17.341666666666697 ], [ 122.12952440049915, 17.344121805826852 ], [ 122.139950731065568, 17.354519992404544 ], [ 122.148257785373289, 17.353813340928848 ], [ 122.151742214626765, 17.350353325737878 ], [ 122.170833333333363, 17.35 ], [ 122.171186659071211, 17.326742214626766 ], [ 122.174646674262178, 17.323257785373293 ], [ 122.175358072916694, 17.318376498752201 ], [ 122.180908881293419, 17.312853325737876 ], [ 122.183333333333351, 17.3125 ], [ 122.183963521321644, 17.310352410210534 ], [ 122.191036478678413, 17.302147589789527 ], [ 122.19229685465497, 17.297852410210531 ], [ 122.195203145345076, 17.293814256456194 ], [ 122.196463521321633, 17.289519076877198 ], [ 122.199369812011739, 17.285480923122858 ], [ 122.20063018798831, 17.268685743543866 ], [ 122.203536478678416, 17.264647589789526 ], [ 122.205112033420164, 17.259278700086835 ], [ 122.213130187988298, 17.256925625271297 ], [ 122.211869812011741, 17.243685743543864 ], [ 122.203536478678416, 17.23401879204647 ], [ 122.204939609103761, 17.221587965223552 ], [ 122.218814256456184, 17.220203145345081 ], [ 122.227019076877198, 17.213130187988309 ], [ 122.229166666666686, 17.2125 ], [ 122.231591118706618, 17.212853325737875 ], [ 122.235075547960093, 17.216313340928849 ], [ 122.244091118706621, 17.217019992404541 ], [ 122.247575547960096, 17.220480007595516 ], [ 122.254166666666691, 17.220833333333363 ], [ 122.279166666666697, 17.220833333333363 ], [ 122.279519992404545, 17.214242214626765 ], [ 122.283318752712702, 17.210416666666696 ], [ 122.278813340928849, 17.205879550510012 ], [ 122.279519992404545, 17.197575547960099 ], [ 122.283686659071208, 17.193379550510009 ], [ 122.282980007595512, 17.189242214626766 ], [ 122.279519992404545, 17.185757785373291 ], [ 122.279166666666697, 17.1625 ], [ 122.266666666666694, 17.1625 ], [ 122.263098483615479, 17.161584303114179 ], [ 122.2625, 17.141666666666694 ], [ 122.262853325737865, 17.130908881293429 ], [ 122.266652086046037, 17.12708333333336 ], [ 122.262853325737865, 17.123257785373291 ], [ 122.2625, 17.108333333333363 ], [ 122.26581573486331, 17.107482571072076 ], [ 122.267233954535612, 17.101956176757842 ], [ 122.270266045464439, 17.098043823242215 ], [ 122.271400621202275, 17.089456176757839 ], [ 122.274432712131102, 17.085543823242215 ], [ 122.275567287868952, 17.07695617675784 ], [ 122.278697882758266, 17.072916666666693 ], [ 122.275567287868952, 17.068877156575549 ], [ 122.275, 17.058333333333362 ], [ 122.278315734863298, 17.057482571072075 ], [ 122.279166666666697, 17.054166666666696 ], [ 122.28162350124785, 17.053808593750027 ], [ 122.287146674262175, 17.048257785373291 ], [ 122.2875, 17.041666666666693 ], [ 122.287146674262175, 17.035075547960098 ], [ 122.283686659071208, 17.031591118706626 ], [ 122.282980007595512, 17.022575547960095 ], [ 122.279519992404545, 17.019091118706623 ], [ 122.278813340928849, 17.014242214626762 ], [ 122.274646674262172, 17.010046386718777 ], [ 122.275353325737868, 17.005908881293429 ], [ 122.279152086046025, 17.00208333333336 ], [ 122.275014580620677, 16.997916666666693 ], [ 122.279152086046025, 16.99375 ], [ 122.275353325737868, 16.989924452039958 ], [ 122.274646674262172, 16.980908881293431 ], [ 122.271186659071205, 16.977424452039958 ], [ 122.270478481716609, 16.964213053385443 ], [ 122.264924452039949, 16.958686659071208 ], [ 122.255908881293422, 16.957980007595513 ], [ 122.248257785373283, 16.950353325737872 ], [ 122.2375, 16.95 ], [ 122.237853325737873, 16.93090888129343 ], [ 122.250353325737876, 16.918383110894123 ], [ 122.249646674262181, 16.910075547960094 ], [ 122.245480007595503, 16.905879720052109 ], [ 122.246186659071199, 16.901742214626761 ], [ 122.249646674262181, 16.898257785373289 ], [ 122.250353325737876, 16.889242214626762 ], [ 122.253813340928843, 16.88575778537329 ], [ 122.254519992404539, 16.880908881293429 ], [ 122.257980007595506, 16.877424452039957 ], [ 122.258333333333354, 16.875 ], [ 122.258333333333354, 16.8625 ], [ 122.260757785373286, 16.862146674262178 ], [ 122.264242214626762, 16.858686659071207 ], [ 122.275, 16.858333333333359 ], [ 122.274646674262172, 16.855908881293427 ], [ 122.271186659071205, 16.852424452039955 ], [ 122.270480007595509, 16.847575547960094 ], [ 122.267019992404542, 16.844091118706622 ], [ 122.266313340928846, 16.839242214626761 ], [ 122.258686659071202, 16.831591118706623 ], [ 122.257980007595506, 16.818408881293429 ], [ 122.253813340928843, 16.814213053385441 ], [ 122.254519992404539, 16.805908881293426 ], [ 122.262486097547765, 16.797917344835096 ], [ 122.258686659071202, 16.794091118706621 ], [ 122.257980007595506, 16.789242214626761 ], [ 122.246186659071199, 16.777424452039956 ], [ 122.245480007595503, 16.768408881293428 ], [ 122.242019992404536, 16.764924452039956 ], [ 122.241666666666688, 16.754166666666691 ], [ 122.242019992404536, 16.73924221462676 ], [ 122.245480007595503, 16.735757785373288 ], [ 122.245833333333351, 16.708333333333357 ], [ 122.245833333333351, 16.704166666666691 ], [ 122.245266045464433, 16.701956176757836 ], [ 122.242135450575105, 16.697916666666693 ], [ 122.246400621202284, 16.69241333007815 ], [ 122.245266045464433, 16.68528951009117 ], [ 122.242233954535621, 16.681377156575547 ], [ 122.240815734863304, 16.675850762261309 ], [ 122.234010484483534, 16.674104478624155 ], [ 122.217233954535615, 16.656377156575545 ], [ 122.2157670762804, 16.650661214192731 ], [ 122.208333333333357, 16.65 ], [ 122.207980007595509, 16.647575547960095 ], [ 122.200353325737865, 16.639924452039956 ], [ 122.2, 16.6375 ], [ 122.196745300292989, 16.636733330620682 ], [ 122.195303853352883, 16.632392713758705 ], [ 122.19947052001956, 16.627248128255232 ], [ 122.2, 16.625 ], [ 122.2, 16.604166666666689 ], [ 122.200353325737865, 16.589242214626758 ], [ 122.204519992404542, 16.585046386718773 ], [ 122.203813340928846, 16.568408881293426 ], [ 122.200014580620689, 16.564583333333356 ], [ 122.203813340928846, 16.560757785373287 ], [ 122.204166666666694, 16.558333333333358 ], [ 122.204166666666694, 16.554166666666688 ], [ 122.201956176757832, 16.553599378797767 ], [ 122.19653761121964, 16.549080403645856 ], [ 122.195266045464436, 16.539456176757835 ], [ 122.188067287868947, 16.531377156575545 ], [ 122.186932712131096, 16.522789510091169 ], [ 122.175567287868944, 16.510543823242209 ], [ 122.17411261664499, 16.504875013563392 ], [ 122.164456176757838, 16.503599378797766 ], [ 122.156377156575545, 16.49640062120228 ], [ 122.151956176757835, 16.495266045464433 ], [ 122.148043823242205, 16.492233954535614 ], [ 122.143622843424509, 16.491099378797767 ], [ 122.139710489908879, 16.488067287868947 ], [ 122.134184265136739, 16.486649237738739 ], [ 122.132766045464436, 16.481122843424501 ], [ 122.12973395453561, 16.477210489908877 ], [ 122.129166666666691, 16.475 ], [ 122.122575547960096, 16.474646674262175 ], [ 122.119091118706621, 16.471186659071204 ], [ 122.116666666666688, 16.470833333333356 ], [ 122.1125, 16.470833333333356 ], [ 122.112853325737873, 16.468408881293424 ], [ 122.117019992404536, 16.464213053385439 ], [ 122.116313340928841, 16.447575547960092 ], [ 122.112853325737873, 16.44409111870662 ], [ 122.112146674262178, 16.439242214626759 ], [ 122.108686659071196, 16.435757785373287 ], [ 122.107980007595515, 16.430908881293426 ], [ 122.100353325737871, 16.423257785373288 ], [ 122.099646674262175, 16.418408881293423 ], [ 122.087853325737868, 16.406591118706618 ], [ 122.087141927083351, 16.401709662543425 ], [ 122.081591118706626, 16.396186659071201 ], [ 122.079166666666694, 16.395833333333357 ], [ 122.076956176757832, 16.396400621202279 ], [ 122.072052001953153, 16.400201416015648 ], [ 122.066354539659315, 16.398924085829016 ], [ 122.070266045464436, 16.393877156575542 ], [ 122.071400621202287, 16.390920003255232 ], [ 122.066270785861562, 16.384301079644118 ], [ 122.059184265136736, 16.382482571072071 ], [ 122.057482401529967, 16.375850762261308 ], [ 122.051956176757841, 16.3744327121311 ], [ 122.046801079644126, 16.370437282986131 ], [ 122.044982401529964, 16.363350762261305 ], [ 122.039456176757838, 16.361932712131097 ], [ 122.035543823242207, 16.358900621202277 ], [ 122.030017598470067, 16.357482571072069 ], [ 122.028599378797765, 16.351956176757835 ], [ 122.025567287868952, 16.348043823242207 ], [ 122.024100409613737, 16.342327880859397 ], [ 122.009232923719637, 16.341005452473979 ], [ 122.007766045464436, 16.335289510091169 ], [ 122.00473395453561, 16.331377156575542 ], [ 122.003599378797759, 16.322789510091166 ], [ 122.000567287868947, 16.318877156575542 ], [ 121.999432712131096, 16.314456176757833 ], [ 121.996400621202284, 16.31054382324221 ], [ 121.995833333333351, 16.3 ], [ 121.992517598470073, 16.299149237738735 ], [ 121.991666666666688, 16.295833333333356 ], [ 121.98835093180341, 16.294982571072069 ], [ 121.9875, 16.291666666666689 ], [ 121.986649068196641, 16.288350762261306 ], [ 121.979875183105491, 16.286612616644987 ], [ 121.97845815022788, 16.275887383355055 ], [ 121.972789510091161, 16.274432712131098 ], [ 121.968877156575545, 16.271400621202279 ], [ 121.96314578586157, 16.269929673936652 ], [ 121.95056728786895, 16.256377156575542 ], [ 121.949291483561225, 16.24672071668839 ], [ 121.943622843424507, 16.24526604546443 ], [ 121.939710489908876, 16.24223395453561 ], [ 121.935289510091167, 16.241099378797763 ], [ 121.929913330078151, 16.236932712131097 ], [ 121.922789510091164, 16.238067287868944 ], [ 121.910543823242207, 16.249432712131096 ], [ 121.905017598470067, 16.250850762261305 ], [ 121.904166666666683, 16.254166666666688 ], [ 121.9, 16.254166666666688 ], [ 121.8875, 16.254166666666688 ], [ 121.886932712131099, 16.251956176757833 ], [ 121.883900621202272, 16.24804382324221 ], [ 121.882624816894548, 16.238387383355054 ], [ 121.875395880805144, 16.236532253689255 ], [ 121.871400621202284, 16.23137715657554 ], [ 121.870266045464433, 16.226956176757835 ], [ 121.86609937879777, 16.221579996744811 ], [ 121.867233954535607, 16.206122843424499 ], [ 121.870266045464433, 16.202210489908875 ], [ 121.870833333333366, 16.195833333333354 ], [ 121.874604119194899, 16.194865587022591 ], [ 121.878697882758274, 16.189583333333353 ], [ 121.875567287868947, 16.185543823242206 ], [ 121.87414906819663, 16.180017428927972 ], [ 121.868622843424504, 16.178599378797763 ], [ 121.864710489908873, 16.175567287868944 ], [ 121.860289510091164, 16.174432712131097 ], [ 121.856377156575547, 16.171400621202277 ], [ 121.851956176757838, 16.17026604546443 ], [ 121.848043823242207, 16.167233954535611 ], [ 121.843622843424498, 16.166099378797764 ], [ 121.839710489908882, 16.163067287868945 ], [ 121.830086093478755, 16.161795722113737 ], [ 121.82556728786895, 16.156377156575541 ], [ 121.823836771647152, 16.149634128146722 ], [ 121.814710489908876, 16.157766045464431 ], [ 121.8125, 16.158333333333353 ], [ 121.810289510091167, 16.157766045464431 ], [ 121.806377156575536, 16.154733954535612 ], [ 121.80063764784073, 16.153260972764777 ], [ 121.799432712131093, 16.135289510091166 ], [ 121.796400621202281, 16.131377156575539 ], [ 121.795833333333348, 16.129166666666688 ], [ 121.795833333333377, 16.125 ], [ 121.776742214626779, 16.125353325737866 ], [ 121.773257785373303, 16.12881334092884 ], [ 121.768408881293439, 16.129519992404532 ], [ 121.760757785373301, 16.137146674262173 ], [ 121.751742214626773, 16.137853325737868 ], [ 121.735757785373295, 16.153813340928838 ], [ 121.733333333333363, 16.154166666666686 ], [ 121.732690429687537, 16.152031792534743 ], [ 121.7214762369792, 16.139634874131964 ], [ 121.720190429687534, 16.131198459201407 ], [ 121.717309570312537, 16.127134874131965 ], [ 121.715890163845529, 16.113219875759569 ], [ 121.704166666666708, 16.1125 ], [ 121.704733954535627, 16.089456176757832 ], [ 121.707864718967045, 16.085416666666685 ], [ 121.704733954535627, 16.081377156575542 ], [ 121.703599378797776, 16.076956176757832 ], [ 121.700567287868964, 16.073043823242209 ], [ 121.699295722113746, 16.063419596354187 ], [ 121.693877156575553, 16.058900621202277 ], [ 121.675905693901939, 16.057695515950542 ], [ 121.674032253689276, 16.050396050347242 ], [ 121.668877156575562, 16.046400621202277 ], [ 121.656122843424512, 16.04526604546443 ], [ 121.648043823242219, 16.038067287868941 ], [ 121.643622843424509, 16.036932712131097 ], [ 121.635543823242216, 16.029733954535608 ], [ 121.622789510091181, 16.028599378797761 ], [ 121.61875, 16.025468614366339 ], [ 121.613246663411488, 16.029733954535608 ], [ 121.609144422743086, 16.02815992567276 ], [ 121.607482571072083, 16.021684095594637 ], [ 121.601956176757852, 16.020266045464428 ], [ 121.598043823242222, 16.017233954535609 ], [ 121.593622843424512, 16.016099378797762 ], [ 121.589710489908896, 16.013067287868942 ], [ 121.585289510091187, 16.011932712131095 ], [ 121.57593722873267, 16.003599378797762 ], [ 121.563450792100724, 16.004833306206617 ], [ 121.558900621202298, 16.010289510091166 ], [ 121.558333333333366, 16.0125 ], [ 121.558333333333366, 16.016666666666687 ], [ 121.555908881293433, 16.016313340928839 ], [ 121.552424452039958, 16.012853325737865 ], [ 121.544120279947947, 16.012146674262173 ], [ 121.539924452039969, 16.016313340928839 ], [ 121.5375, 16.016666666666687 ], [ 121.536649237738743, 16.013350762261304 ], [ 121.533333333333374, 16.0125 ], [ 121.533333333333374, 16.008333333333354 ], [ 121.537386067708368, 16.007174682617205 ], [ 121.541105143229203, 16.002083333333353 ], [ 121.536882527669306, 15.996302625868076 ], [ 121.538117472330768, 15.989506361219636 ], [ 121.542284138997431, 15.983802625868075 ], [ 121.541049194335969, 15.968673027886304 ], [ 121.529784138997428, 15.956326972113734 ], [ 121.52824028862851, 15.950926378038213 ], [ 121.522839694552985, 15.94938252766929 ], [ 121.51466030544708, 15.942284138997415 ], [ 121.502006361219657, 15.941049194335957 ], [ 121.497993638780414, 15.938117472330749 ], [ 121.488156806098118, 15.936685858832483 ], [ 121.4875, 15.916666666666686 ], [ 121.485365125868086, 15.916023932562968 ], [ 121.48130154079864, 15.913142734103767 ], [ 121.471847534179716, 15.911702134874165 ], [ 121.470190429687534, 15.906198289659322 ], [ 121.462059190538227, 15.896702914767829 ], [ 121.451447889539963, 15.895190599229634 ], [ 121.449357096354206, 15.902135043674079 ], [ 121.446476236979194, 15.906198289659322 ], [ 121.444868977864616, 15.911535814073385 ], [ 121.439531792534751, 15.913142734103767 ], [ 121.435468207465306, 15.916023932562968 ], [ 121.41758219401045, 15.917309400770433 ], [ 121.4166666666667, 15.908333333333367 ], [ 121.391666666666694, 15.908333333333353 ], [ 121.390815904405414, 15.905017598470087 ], [ 121.383916219075559, 15.903246900770434 ], [ 121.375567287868961, 15.893877156575556 ], [ 121.37443271213111, 15.889456176757847 ], [ 121.367233954535621, 15.881377156575555 ], [ 121.366666666666703, 15.8791666666667 ], [ 121.364242214626771, 15.878813340928854 ], [ 121.360757785373295, 15.875353325737882 ], [ 121.351742214626768, 15.874646674262188 ], [ 121.348257785373292, 15.871186659071213 ], [ 121.343408881293442, 15.870480007595519 ], [ 121.339583333333366, 15.86668124728736 ], [ 121.335757785373303, 15.870480007595519 ], [ 121.316666666666706, 15.870833333333367 ], [ 121.314531792534751, 15.871476067437101 ], [ 121.30213487413198, 15.882690599229635 ], [ 121.296578301323819, 15.884363471137187 ], [ 121.295061916775211, 15.899228583441875 ], [ 121.28119845920142, 15.900642734103766 ], [ 121.277134874131974, 15.903523932562969 ], [ 121.27179768880211, 15.90513085259335 ], [ 121.269868977864618, 15.911535814073385 ], [ 121.264531792534754, 15.913142734103767 ], [ 121.254965549045167, 15.921334669325121 ], [ 121.253421698676249, 15.936469862196216 ], [ 121.247865125868088, 15.938142734103767 ], [ 121.243801540798643, 15.941023932562969 ], [ 121.241666666666703, 15.941666666666702 ], [ 121.241666666666703, 15.945833333333368 ], [ 121.242019992404551, 15.956591118706632 ], [ 121.245480007595518, 15.960075547960104 ], [ 121.245833333333366, 15.9625 ], [ 121.244982571072086, 15.965815734863316 ], [ 121.241666666666703, 15.966666666666701 ], [ 121.241666666666703, 15.970833333333367 ], [ 121.24076707628042, 15.974338785807326 ], [ 121.226956176757838, 15.975567287868959 ], [ 121.218877156575559, 15.982766045464444 ], [ 121.210289510091172, 15.983900621202292 ], [ 121.202210489908879, 15.991099378797777 ], [ 121.193622843424507, 15.992233954535624 ], [ 121.188132731119822, 15.996812438964879 ], [ 121.186862182617219, 16.015760972764792 ], [ 121.183333333333366, 16.016666666666701 ], [ 121.182980007595518, 16.023257785373282 ], [ 121.175353325737873, 16.030908881293421 ], [ 121.174646674262178, 16.035046386718768 ], [ 121.178813340928855, 16.039242214626753 ], [ 121.179519992404551, 16.044091118706618 ], [ 121.182980007595518, 16.04757554796009 ], [ 121.183333333333366, 16.054166666666685 ], [ 121.182980007595518, 16.06492445203995 ], [ 121.17328830295142, 16.074642266167555 ], [ 121.168408881293431, 16.075353325737865 ] ] ] } }
]
}
