{
"type": "FeatureCollection",
"name": "pampanga",
"crs": { "type": "name", "properties": { "name": "urn:ogc:def:crs:OGC:1.3:CRS84" } },
"features": [
{ "type": "Feature", "properties": { "HYBAS_ID": 5120029400, "NEXT_DOWN": 0, "NEXT_SINK": 5120029400, "MAIN_BAS": 5120029400, "DIST_SINK": 0.0, "DIST_MAIN": 0.0, "SUB_AREA": 167.7, "UP_AREA": 9487.8, "PFAF_ID": 524092100100, "ENDO": 0, "COAST": 0, "ORDER": 1, "SORT": 12268 }, "geometry": { "type": "Polygon", "coordinates": [ [ [ 120.751956176757844, 14.841099378797768 ], [ 120.748043823242213, 14.838067287868949 ], [ 120.738387383355061, 14.836791653103324 ], [ 120.73661261664499, 14.829875013563393 ], [ 120.725929260253935, 14.828463745117213 ], [ 120.717233954535615, 14.818877156575546 ], [ 120.716099378797765, 14.81028951009117 ], [ 120.713067287868952, 14.806377156575547 ], [ 120.711889648437534, 14.78016459147138 ], [ 120.705016750759583, 14.774432712131102 ], [ 120.689456176757844, 14.775567287868949 ], [ 120.684079996744813, 14.779733954535615 ], [ 120.672789510091178, 14.778599378797768 ], [ 120.668877156575547, 14.775567287868949 ], [ 120.65833333333336, 14.775 ], [ 120.655908881293428, 14.774646674262177 ], [ 120.652424452039952, 14.771186659071205 ], [ 120.645833333333357, 14.770833333333359 ], [ 120.645833333333357, 14.775 ], [ 120.649372185601152, 14.775908067491343 ], [ 120.650567287868952, 14.796579996744818 ], [ 120.645437452528242, 14.803198920355928 ], [ 120.639456176757847, 14.804733954535616 ], [ 120.634583028157579, 14.808510674370686 ], [ 120.632766045464436, 14.813246663411483 ], [ 120.636932712131099, 14.818622843424505 ], [ 120.63806728786895, 14.831377156575545 ], [ 120.641099378797776, 14.835289510091172 ], [ 120.642233954535612, 14.843877156575546 ], [ 120.645266045464439, 14.847789510091172 ], [ 120.646400621202289, 14.856377156575547 ], [ 120.649531216091603, 14.860416666666692 ], [ 120.646400621202289, 14.864456176757837 ], [ 120.645266045464439, 14.868877156575547 ], [ 120.636494106716611, 14.87854817708336 ], [ 120.625, 14.879166666666693 ], [ 120.625605095757408, 14.893839518229193 ], [ 120.629610527886314, 14.899241807725721 ], [ 120.628373379177546, 14.907613796658012 ], [ 120.620833333333366, 14.90833333333336 ], [ 120.621186659071213, 14.91075778537329 ], [ 120.624646674262181, 14.914242214626762 ], [ 120.625353325737876, 14.919091118706623 ], [ 120.633319430881102, 14.927082655164957 ], [ 120.629180569118944, 14.931250678168428 ], [ 120.637146674262183, 14.939242214626763 ], [ 120.6375, 14.941666666666693 ], [ 120.633935716417128, 14.942581176757839 ], [ 120.632766045464436, 14.977210489908881 ], [ 120.617233954535621, 14.993622843424506 ], [ 120.615779283311653, 14.999291653103326 ], [ 120.606122843424501, 15.00056728786895 ], [ 120.598043823242222, 15.007766045464436 ], [ 120.593622843424512, 15.008900621202283 ], [ 120.585543823242219, 15.016099378797771 ], [ 120.581122843424509, 15.017233954535618 ], [ 120.573043823242216, 15.024432712131103 ], [ 120.570833333333354, 15.025 ], [ 120.570480007595506, 15.027424452039957 ], [ 120.567019992404539, 15.03090888129343 ], [ 120.566666666666691, 15.03333333333336 ], [ 120.566099378797773, 15.035543823242215 ], [ 120.563067287868947, 15.03945617675784 ], [ 120.561932712131096, 15.043877156575547 ], [ 120.558900621202284, 15.047789510091173 ], [ 120.557766045464433, 15.052210489908882 ], [ 120.554733954535621, 15.056122843424507 ], [ 120.553315734863304, 15.061649237738742 ], [ 120.55, 15.0625 ], [ 120.55, 15.066666666666695 ], [ 120.553323703342045, 15.067667304144992 ], [ 120.554809400770424, 15.075321790907145 ], [ 120.550642734103761, 15.081198459201417 ], [ 120.54935726589629, 15.093801540798639 ], [ 120.541516791449681, 15.10295715332034 ], [ 120.535364956325978, 15.104809570312527 ], [ 120.531301710340742, 15.107690429687528 ], [ 120.527031622992652, 15.108976236979194 ], [ 120.510468377007399, 15.124357096354196 ], [ 120.506198289659309, 15.125642903645861 ], [ 120.502135043674073, 15.128523763020862 ], [ 120.487178209092903, 15.129809570312528 ], [ 120.481301710340745, 15.125642903645861 ], [ 120.464531622992652, 15.124357096354196 ], [ 120.460468377007402, 15.121476236979195 ], [ 120.437178209092906, 15.120190429687527 ], [ 120.431301710340733, 15.124357096354196 ], [ 120.405082194010447, 15.125642903645861 ], [ 120.404166666666697, 15.116666666666694 ], [ 120.400850931803404, 15.115815904405409 ], [ 120.4, 15.1125 ], [ 120.393408881293425, 15.112853325737875 ], [ 120.389924452039949, 15.116313340928848 ], [ 120.380908881293422, 15.117019992404542 ], [ 120.373257785373283, 15.124646674262181 ], [ 120.370833333333366, 15.125 ], [ 120.366666666666688, 15.125 ], [ 120.365815734863304, 15.12831590440541 ], [ 120.3625, 15.129166666666695 ], [ 120.36335093180341, 15.132482571072076 ], [ 120.366666666666688, 15.133333333333361 ], [ 120.36606818305124, 15.153251139322945 ], [ 120.3625, 15.154166666666695 ], [ 120.363399590386308, 15.157672119140653 ], [ 120.370833333333366, 15.158333333333362 ], [ 120.385757785373286, 15.158686659071208 ], [ 120.389242214626762, 15.162146674262182 ], [ 120.391666666666694, 15.1625 ], [ 120.392233954535612, 15.168877156575549 ], [ 120.416099378797767, 15.193622843424507 ], [ 120.417233954535618, 15.202210489908882 ], [ 120.42026604546443, 15.206122843424508 ], [ 120.421465216742646, 15.224006144205758 ], [ 120.431122843424504, 15.232766045464437 ], [ 120.436649068196644, 15.234184265136747 ], [ 120.438419765896299, 15.241083780924509 ], [ 120.44778951009117, 15.249432712131105 ], [ 120.458333333333357, 15.25 ], [ 120.458950975206193, 15.264660135904977 ], [ 120.461882358127198, 15.268673197428415 ], [ 120.463117641872856, 15.277160135904976 ], [ 120.470276726616774, 15.285410054524769 ], [ 120.466049024793861, 15.291197543674073 ], [ 120.467284308539519, 15.29799346923831 ], [ 120.474382358127201, 15.306173197428414 ], [ 120.476158820258277, 15.312386067708363 ], [ 120.481173197428404, 15.316049024793866 ], [ 120.48673180474178, 15.317638312445776 ], [ 120.488117641872861, 15.327160135904977 ], [ 120.491049024793867, 15.331173197428415 ], [ 120.492332288954017, 15.361631266276071 ], [ 120.50617319742841, 15.3743823581272 ], [ 120.512386067708363, 15.376158820258276 ], [ 120.516049024793858, 15.381173197428415 ], [ 120.517469278971376, 15.390931532118085 ], [ 120.531326802571641, 15.392284308539526 ], [ 120.535339864095079, 15.395215691460534 ], [ 120.55, 15.395833333333364 ], [ 120.553315734863304, 15.396684265136749 ], [ 120.554733954535621, 15.402210489908885 ], [ 120.561932712131096, 15.410289510091175 ], [ 120.563350931803413, 15.415815734863312 ], [ 120.568877156575553, 15.41723395453562 ], [ 120.57278951009117, 15.420266045464441 ], [ 120.579166666666694, 15.420833333333363 ], [ 120.579733954535612, 15.423043823242217 ], [ 120.582766045464439, 15.426956176757843 ], [ 120.584184265136741, 15.432482401529978 ], [ 120.5875, 15.433333333333364 ], [ 120.589924452039952, 15.43368665907121 ], [ 120.593408881293428, 15.437146674262184 ], [ 120.59583333333336, 15.4375 ], [ 120.596736823187968, 15.441020880805151 ], [ 120.610289510091178, 15.453599378797774 ], [ 120.615958150227897, 15.455054050021731 ], [ 120.617233954535621, 15.464710489908885 ], [ 120.620266045464433, 15.468622843424509 ], [ 120.621400621202284, 15.481377156575551 ], [ 120.62443271213111, 15.485289510091176 ], [ 120.625967746310792, 15.491270785861577 ], [ 120.631122843424507, 15.49526604546444 ], [ 120.633333333333354, 15.495833333333364 ], [ 120.632980007595506, 15.498257785373294 ], [ 120.629519992404539, 15.501742214626766 ], [ 120.628813340928843, 15.531591118706629 ], [ 120.625014580620686, 15.535416666666698 ], [ 120.629152086046034, 15.539583333333365 ], [ 120.625353325737876, 15.543408881293434 ], [ 120.625, 15.55 ], [ 120.636509535047765, 15.550619167751767 ], [ 120.641099378797776, 15.556122843424511 ], [ 120.642233954535612, 15.564710489908887 ], [ 120.649432712131102, 15.572789510091177 ], [ 120.650850931803419, 15.578315734863313 ], [ 120.657482401529975, 15.580017598470084 ], [ 120.659301079644123, 15.58710411919491 ], [ 120.664456176757838, 15.591099378797775 ], [ 120.668877156575547, 15.592233954535622 ], [ 120.674253336588563, 15.596400621202289 ], [ 120.677210489908887, 15.595266045464442 ], [ 120.682586669921903, 15.591099378797775 ], [ 120.702210489908879, 15.592233954535622 ], [ 120.710289510091172, 15.599432712131108 ], [ 120.714710489908882, 15.600567287868955 ], [ 120.71875, 15.603697882758279 ], [ 120.722789510091175, 15.600567287868955 ], [ 120.733333333333363, 15.6 ], [ 120.733900621202281, 15.602210489908886 ], [ 120.745266045464433, 15.614456176757844 ], [ 120.746400621202284, 15.62304382324222 ], [ 120.754749552408882, 15.632413567437098 ], [ 120.761791483561225, 15.6342207166884 ], [ 120.76306728786895, 15.643877156575552 ], [ 120.770266045464439, 15.651956176757844 ], [ 120.770833333333357, 15.654166666666699 ], [ 120.777210489908882, 15.653599378797775 ], [ 120.78125, 15.650468783908451 ], [ 120.785289510091175, 15.653599378797775 ], [ 120.793877156575547, 15.654733954535622 ], [ 120.797789510091178, 15.657766045464442 ], [ 120.82825334337025, 15.658940802680153 ], [ 120.830017598470079, 15.665815734863314 ], [ 120.837104119194905, 15.667634412977463 ], [ 120.841099378797765, 15.672789510091178 ], [ 120.842233954535615, 15.681377156575554 ], [ 120.853599378797767, 15.693622843424512 ], [ 120.854870944552985, 15.703247239854633 ], [ 120.860289510091178, 15.707766045464442 ], [ 120.8625, 15.708333333333366 ], [ 120.866005452473985, 15.70923292371965 ], [ 120.867233954535621, 15.72304382324222 ], [ 120.878706868489616, 15.735405307345953 ], [ 120.875468614366355, 15.739583333333366 ], [ 120.878599378797773, 15.743622843424511 ], [ 120.879733954535624, 15.74804382324222 ], [ 120.882766045464436, 15.751956176757846 ], [ 120.883900621202287, 15.759321424696214 ], [ 120.871293131510441, 15.772905307345953 ], [ 120.87443271213111, 15.776956176757846 ], [ 120.875, 15.779166666666701 ], [ 120.874149237738749, 15.782482401529981 ], [ 120.867517428927982, 15.784184265136751 ], [ 120.86609937879777, 15.789710489908888 ], [ 120.853233506944477, 15.803464253743524 ], [ 120.843622843424512, 15.804733954535624 ], [ 120.839710489908882, 15.807766045464444 ], [ 120.8375, 15.808333333333366 ], [ 120.835289510091172, 15.808900621202291 ], [ 120.831377156575556, 15.81193271213111 ], [ 120.825850931803416, 15.813350931803418 ], [ 120.824432712131099, 15.818877156575555 ], [ 120.820437452528239, 15.824032253689269 ], [ 120.814456176757844, 15.825567287868957 ], [ 120.808989291720948, 15.830126444498731 ], [ 120.808333333333366, 15.8375 ], [ 120.808686659071213, 15.839924452039964 ], [ 120.812146674262181, 15.843408881293437 ], [ 120.812853325737876, 15.848257785373297 ], [ 120.824646674262183, 15.860075547960104 ], [ 120.825, 15.870833333333367 ], [ 120.844091118706629, 15.871186659071213 ], [ 120.847575547960105, 15.874646674262188 ], [ 120.856591118706632, 15.875353325737882 ], [ 120.860075547960093, 15.878813340928854 ], [ 120.877424452039961, 15.879519992404548 ], [ 120.885075547960099, 15.887146674262187 ], [ 120.889924452039963, 15.887853325737881 ], [ 120.897575547960102, 15.89548000759552 ], [ 120.914953274197075, 15.896187845865919 ], [ 120.920480007595515, 15.90174221462677 ], [ 120.921186659071211, 15.906591118706631 ], [ 120.928813340928855, 15.914242214626771 ], [ 120.929524400499162, 15.919121805826858 ], [ 120.939242214626759, 15.928813340928855 ], [ 120.941666666666691, 15.929166666666701 ], [ 120.941313340928843, 15.935757785373298 ], [ 120.937853325737876, 15.93924221462677 ], [ 120.937146674262181, 15.952424452039965 ], [ 120.933686659071213, 15.955908881293437 ], [ 120.932980007595518, 15.964924452039964 ], [ 120.921186659071211, 15.976742214626771 ], [ 120.920480007595515, 15.997546217176684 ], [ 120.924646674262178, 16.00174221462677 ], [ 120.925, 16.004166666666702 ], [ 120.924646674262178, 16.006591118706631 ], [ 120.921186659071211, 16.010075547960106 ], [ 120.920833333333363, 16.025 ], [ 120.920833333333363, 16.029166666666701 ], [ 120.920266045464444, 16.039710489908888 ], [ 120.913067287868955, 16.047789510091182 ], [ 120.911932712131104, 16.052210489908891 ], [ 120.90793728298614, 16.057365587022606 ], [ 120.900850762261314, 16.059184265136754 ], [ 120.89914923773874, 16.065815734863317 ], [ 120.895833333333357, 16.066666666666702 ], [ 120.896186659071205, 16.077424452039967 ], [ 120.899646674262186, 16.080908881293439 ], [ 120.900353325737882, 16.093379550510019 ], [ 120.896186659071205, 16.097575547960105 ], [ 120.895480007595509, 16.110046217176684 ], [ 120.899646674262186, 16.114242214626771 ], [ 120.9, 16.125 ], [ 120.900358072916703, 16.127456834581199 ], [ 120.905908881293428, 16.132980007595521 ], [ 120.910757785373292, 16.133686659071216 ], [ 120.914953613281284, 16.137853325737883 ], [ 120.919091118706632, 16.137146674262191 ], [ 120.922575547960093, 16.133686659071216 ], [ 120.939924452039961, 16.132980007595521 ], [ 120.947575547960099, 16.125353325737883 ], [ 120.952424452039963, 16.124646674262188 ], [ 120.960075547960102, 16.117019992404551 ], [ 120.964924452039966, 16.116313340928855 ], [ 120.969120279947944, 16.112146674262188 ], [ 120.973291354709232, 16.112858920627207 ], [ 120.978813340928852, 16.118408881293437 ], [ 120.979519992404548, 16.123257785373301 ], [ 120.982980007595515, 16.126742214626773 ], [ 120.983689032660621, 16.135787794325122 ], [ 120.989242214626771, 16.141313340928857 ], [ 120.991666666666703, 16.141666666666687 ], [ 120.994091118706621, 16.141313340928857 ], [ 121.005908881293436, 16.12951999240455 ], [ 121.0125, 16.129166666666702 ], [ 121.031591118706629, 16.129519992404532 ], [ 121.035786946614607, 16.133686659071202 ], [ 121.039924452039955, 16.132980007595506 ], [ 121.043408881293431, 16.129519992404532 ], [ 121.048257785373295, 16.12881334092884 ], [ 121.052453613281287, 16.124646674262173 ], [ 121.056591118706621, 16.125353325737866 ], [ 121.060075547960096, 16.12881334092884 ], [ 121.069091118706623, 16.129519992404532 ], [ 121.073286946614616, 16.133686659071202 ], [ 121.081591118706626, 16.132980007595506 ], [ 121.085786946614618, 16.12881334092884 ], [ 121.098257785373292, 16.129519992404532 ], [ 121.101742214626768, 16.132980007595506 ], [ 121.1041666666667, 16.133333333333354 ], [ 121.104519992404548, 16.130908881293422 ], [ 121.107980007595515, 16.12742445203995 ], [ 121.108333333333363, 16.125 ], [ 121.10892605251739, 16.100917222764778 ], [ 121.114710489908887, 16.099432712131097 ], [ 121.118622843424504, 16.096400621202278 ], [ 121.125, 16.095833333333353 ], [ 121.127424452039961, 16.095480007595505 ], [ 121.130908881293436, 16.092019992404534 ], [ 121.154166666666697, 16.091666666666686 ], [ 121.154524400499156, 16.089212375217034 ], [ 121.168408881293431, 16.075353325737865 ], [ 121.17328830295142, 16.074642266167555 ], [ 121.182980007595518, 16.06492445203995 ], [ 121.183333333333366, 16.054166666666685 ], [ 121.182980007595518, 16.04757554796009 ], [ 121.179519992404551, 16.044091118706618 ], [ 121.178813340928855, 16.039242214626753 ], [ 121.174646674262178, 16.035046386718768 ], [ 121.175353325737873, 16.030908881293421 ], [ 121.182980007595518, 16.023257785373282 ], [ 121.183333333333366, 16.016666666666701 ], [ 121.186862182617219, 16.015760972764792 ], [ 121.188132731119822, 15.996812438964879 ], [ 121.193622843424507, 15.992233954535624 ], [ 121.202210489908879, 15.991099378797777 ], [ 121.210289510091172, 15.983900621202292 ], [ 121.218877156575559, 15.982766045464444 ], [ 121.226956176757838, 15.975567287868959 ], [ 121.24076707628042, 15.974338785807326 ], [ 121.241666666666703, 15.970833333333367 ], [ 121.241666666666703, 15.966666666666701 ], [ 121.244982571072086, 15.965815734863316 ], [ 121.245833333333366, 15.9625 ], [ 121.245480007595518, 15.960075547960104 ], [ 121.242019992404551, 15.956591118706632 ], [ 121.241666666666703, 15.945833333333368 ], [ 121.241666666666703, 15.941666666666702 ], [ 121.243801540798643, 15.941023932562969 ], [ 121.247865125868088, 15.938142734103767 ], [ 121.253421698676249, 15.936469862196216 ], [ 121.254965549045167, 15.921334669325121 ], [ 121.264531792534754, 15.913142734103767 ], [ 121.269868977864618, 15.911535814073385 ], [ 121.27179768880211, 15.90513085259335 ], [ 121.277134874131974, 15.903523932562969 ], [ 121.28119845920142, 15.900642734103766 ], [ 121.295061916775211, 15.899228583441875 ], [ 121.296578301323819, 15.884363471137187 ], [ 121.30213487413198, 15.882690599229635 ], [ 121.314531792534751, 15.871476067437101 ], [ 121.316666666666706, 15.870833333333367 ], [ 121.316313340928858, 15.855908881293436 ], [ 121.308686659071213, 15.848257785373297 ], [ 121.307980007595518, 15.83924221462677 ], [ 121.303813340928855, 15.835046217176682 ], [ 121.304519992404551, 15.822575547960103 ], [ 121.312853325737876, 15.814215596516961 ], [ 121.312146674262181, 15.810075547960103 ], [ 121.304519992404551, 15.802424452039965 ], [ 121.303813001844645, 15.760048929850294 ], [ 121.294091118706632, 15.75035332573788 ], [ 121.289242214626768, 15.749646674262186 ], [ 121.285757785373292, 15.746186659071213 ], [ 121.28333333333336, 15.745833333333366 ], [ 121.283686659071208, 15.743408881293435 ], [ 121.287853325737885, 15.739212883843349 ], [ 121.287146674262189, 15.730908881293436 ], [ 121.283686659071208, 15.727424452039964 ], [ 121.282980007595512, 15.722575547960101 ], [ 121.279519992404545, 15.719091118706629 ], [ 121.279166666666697, 15.716666666666699 ], [ 121.279774305555591, 15.700913323296474 ], [ 121.286791653103336, 15.699112616644998 ], [ 121.288067287868955, 15.689456176757844 ], [ 121.291099378797782, 15.68554382324222 ], [ 121.292233954535618, 15.681122843424511 ], [ 121.307766045464447, 15.664710489908886 ], [ 121.308966064453159, 15.646812438964876 ], [ 121.315816582573817, 15.641099378797776 ], [ 121.331377156575556, 15.642233954535623 ], [ 121.335425482855939, 15.645371500651073 ], [ 121.343622843424512, 15.638067287868957 ], [ 121.349417114257847, 15.636580234103764 ], [ 121.357766045464444, 15.627210489908887 ], [ 121.359184095594657, 15.62168426513675 ], [ 121.3625, 15.620833333333366 ], [ 121.366666666666703, 15.620833333333366 ], [ 121.367517428927982, 15.617517598470084 ], [ 121.370833333333366, 15.616666666666699 ], [ 121.386473931206638, 15.616063605414528 ], [ 121.399432712131116, 15.602210489908886 ], [ 121.400704277886319, 15.592586093478765 ], [ 121.406122843424512, 15.588067287868956 ], [ 121.410543823242222, 15.586932712131109 ], [ 121.414456176757852, 15.583900621202289 ], [ 121.424112616645004, 15.582624816894562 ], [ 121.425899590386322, 15.57566121419274 ], [ 121.433333333333366, 15.575 ], [ 121.434184095594645, 15.571684265136749 ], [ 121.4375, 15.570833333333365 ], [ 121.43693271213111, 15.564456176757844 ], [ 121.433900621202284, 15.560543823242218 ], [ 121.432672119140662, 15.546732923719649 ], [ 121.425661214192743, 15.54493374294708 ], [ 121.424432712131107, 15.531122843424511 ], [ 121.421400621202295, 15.527210489908885 ], [ 121.420266045464444, 15.522789510091176 ], [ 121.408900621202292, 15.510543823242219 ], [ 121.40833333333336, 15.508333333333365 ], [ 121.407744344075553, 15.480084737141958 ], [ 121.400708346896735, 15.478279283311663 ], [ 121.399291653103333, 15.467554050021732 ], [ 121.395833333333371, 15.466666666666697 ], [ 121.395266045464439, 15.456122843424509 ], [ 121.392233954535627, 15.452210489908884 ], [ 121.390815904405414, 15.446684265136749 ], [ 121.384184095594648, 15.444982401529979 ], [ 121.382482571072075, 15.438350931803416 ], [ 121.3756771511502, 15.436604478624162 ], [ 121.357766045464444, 15.417678324381541 ], [ 121.358900621202295, 15.397789510091176 ], [ 121.363067287868958, 15.392413330078154 ], [ 121.361763170030414, 15.38422580295142 ], [ 121.356377156575547, 15.37973395453562 ], [ 121.349634128146732, 15.378003438313833 ], [ 121.358900621202295, 15.367603895399336 ], [ 121.357766045464444, 15.322789510091175 ], [ 121.346400621202292, 15.310543823242217 ], [ 121.344618394639795, 15.303599378797772 ], [ 121.335289510091172, 15.304733954535619 ], [ 121.331377156575556, 15.307766045464438 ], [ 121.318622843424507, 15.308900621202287 ], [ 121.31471048990889, 15.311932712131107 ], [ 121.308333333333366, 15.3125 ], [ 121.308686659071213, 15.305908881293432 ], [ 121.312146674262181, 15.302424452039959 ], [ 121.312853325737876, 15.289242214626766 ], [ 121.316313340928858, 15.285757785373292 ], [ 121.317019992404539, 15.280908881293431 ], [ 121.320480007595521, 15.277424452039959 ], [ 121.320833333333368, 15.233333333333363 ], [ 121.310075547960096, 15.232980007595515 ], [ 121.306591118706635, 15.229519992404542 ], [ 121.304166666666703, 15.229166666666696 ], [ 121.304519992404551, 15.218408881293431 ], [ 121.307980007595518, 15.214924452039959 ], [ 121.308333333333366, 15.191666666666695 ], [ 121.308686659071213, 15.185075547960098 ], [ 121.312146674262181, 15.181591118706626 ], [ 121.312853325737876, 15.168408881293431 ], [ 121.316313340928858, 15.164924452039958 ], [ 121.316666666666706, 15.1625 ], [ 121.319982571072075, 15.161649068196642 ], [ 121.321684095594648, 15.15501742892798 ], [ 121.328770616319474, 15.15319892035593 ], [ 121.332766045464439, 15.148043823242215 ], [ 121.333333333333371, 15.1375 ], [ 121.329762098524341, 15.136583455403674 ], [ 121.328599378797776, 15.093622843424507 ], [ 121.32556728786895, 15.089710489908882 ], [ 121.324432712131113, 15.072789510091173 ], [ 121.321400621202287, 15.068877156575548 ], [ 121.320833333333368, 15.05 ], [ 121.317358737521729, 15.049006483289958 ], [ 121.31596103244361, 15.029973687065999 ], [ 121.306173027886317, 15.028549194335964 ], [ 121.302160305447075, 15.025617472330756 ], [ 121.3, 15.025 ], [ 121.300353325737873, 15.014242214626762 ], [ 121.303813340928855, 15.01075778537329 ], [ 121.304524739583371, 15.005876329210096 ], [ 121.310075547960096, 15.000353325737874 ], [ 121.319121297200553, 14.99964430067277 ], [ 121.324646674262183, 14.994091118706624 ], [ 121.325, 14.954166666666694 ], [ 121.322789510091184, 14.953599378797769 ], [ 121.318877156575553, 14.95056728786895 ], [ 121.313208346896729, 14.949112616644992 ], [ 121.311791653103327, 14.93838738335506 ], [ 121.305017428927982, 14.936649237738742 ], [ 121.30359937879777, 14.931122843424506 ], [ 121.300567287868958, 14.92721048990888 ], [ 121.299432712131107, 14.920086669921901 ], [ 121.30359937879777, 14.914710489908881 ], [ 121.304733954535621, 14.910289510091172 ], [ 121.307766045464447, 14.906377156575546 ], [ 121.309184095594645, 14.90085076226131 ], [ 121.315659925672776, 14.899188910590304 ], [ 121.317233954535624, 14.895086669921902 ], [ 121.312968614366355, 14.889583333333359 ], [ 121.316099378797773, 14.885543823242212 ], [ 121.317233954535624, 14.836753336588567 ], [ 121.312103949652808, 14.830134412977456 ], [ 121.308333333333366, 14.829166666666692 ], [ 121.305908881293433, 14.829519992404538 ], [ 121.302424452039958, 14.832980007595511 ], [ 121.294120279947947, 14.833686659071207 ], [ 121.289924452039969, 14.829519992404538 ], [ 121.273286946614618, 14.828813340928845 ], [ 121.26875, 14.8333187527127 ], [ 121.264924452039963, 14.829519992404538 ], [ 121.260075547960099, 14.828813340928845 ], [ 121.252424452039961, 14.821186659071206 ], [ 121.245833333333366, 14.820833333333358 ], [ 121.245266045464447, 14.823043823242212 ], [ 121.241270616319483, 14.828198920355929 ], [ 121.233068847656284, 14.830303955078151 ], [ 121.237701416015653, 14.836281331380235 ], [ 121.236654324001762, 14.840952555338568 ], [ 121.226956176757838, 14.842233954535615 ], [ 121.223043823242222, 14.845266045464435 ], [ 121.22083333333336, 14.84583333333336 ], [ 121.220480007595512, 14.835075547960095 ], [ 121.217019992404545, 14.831591118706623 ], [ 121.216308593750028, 14.826709662543429 ], [ 121.210047743055583, 14.820480007595512 ], [ 121.193408881293436, 14.821186659071206 ], [ 121.189924452039961, 14.824646674262178 ], [ 121.175, 14.825 ], [ 121.172789510091178, 14.82556728786895 ], [ 121.168877156575547, 14.828599378797769 ], [ 121.164456176757838, 14.829733954535616 ], [ 121.156377156575559, 14.836932712131102 ], [ 121.151956176757849, 14.838067287868949 ], [ 121.146489122178849, 14.842626614040825 ], [ 121.145266045464439, 14.856377156575547 ], [ 121.142233954535627, 14.860289510091171 ], [ 121.140815904405414, 14.865815904405409 ], [ 121.135289510091184, 14.867233954535616 ], [ 121.125919596354194, 14.875582885742213 ], [ 121.125, 14.879166666666693 ], [ 121.118711005316868, 14.879822116427977 ], [ 121.114622328016523, 14.882677883572075 ], [ 121.097877671983539, 14.883988783094644 ], [ 121.093788994683194, 14.886844550238742 ], [ 121.088988918728333, 14.88815544976131 ], [ 121.086516994900208, 14.880149671766519 ], [ 121.081211005316874, 14.878511216905409 ], [ 121.077122328016529, 14.875655449761311 ], [ 121.070587497287363, 14.874344550238741 ], [ 121.064622328016526, 14.878511216905409 ], [ 121.047877671983542, 14.879822116427977 ], [ 121.035455661349857, 14.891011216905408 ], [ 121.017379760742216, 14.892426215277805 ], [ 121.016666666666694, 14.90833333333336 ], [ 121.005908881293436, 14.908686659071208 ], [ 121.002424452039961, 14.912146674262178 ], [ 120.991666666666703, 14.9125 ], [ 120.985289510091178, 14.91306728786895 ], [ 120.977210489908884, 14.920266045464436 ], [ 120.971684095594654, 14.921684095594644 ], [ 120.970266045464442, 14.92721048990888 ], [ 120.967233954535615, 14.931122843424506 ], [ 120.966099378797779, 14.935543823242213 ], [ 120.961580403645868, 14.940962388780408 ], [ 120.951956176757847, 14.942233954535617 ], [ 120.943877156575553, 14.949432712131102 ], [ 120.920833333333363, 14.95 ], [ 120.913271416558189, 14.949228583441867 ], [ 120.911857096354197, 14.935365125868081 ], [ 120.90064290364586, 14.922968207465305 ], [ 120.899296400282154, 14.901042683919297 ], [ 120.895833333333357, 14.9 ], [ 120.893408881293425, 14.899646674262179 ], [ 120.881591118706623, 14.887853325737874 ], [ 120.872575547960096, 14.887146674262178 ], [ 120.869091118706621, 14.883686659071206 ], [ 120.858333333333363, 14.88333333333336 ], [ 120.843622843424512, 14.882766045464436 ], [ 120.839710489908882, 14.879733954535617 ], [ 120.835289510091172, 14.87859937879777 ], [ 120.825919765896302, 14.870250447591172 ], [ 120.824099053276939, 14.863156127929713 ], [ 120.809548272026944, 14.861932712131102 ], [ 120.80744594997833, 14.870124986436657 ], [ 120.797789510091178, 14.871400621202284 ], [ 120.788663228352888, 14.879532538519991 ], [ 120.786932712131104, 14.872789510091172 ], [ 120.782413906521299, 14.867370944552977 ], [ 120.771720716688392, 14.865958319769991 ], [ 120.770833333333357, 14.8625 ], [ 120.770266045464439, 14.856122843424505 ], [ 120.767233954535612, 14.852210489908879 ], [ 120.765698920355931, 14.846229383680582 ], [ 120.760543823242216, 14.842233954535615 ], [ 120.751956176757844, 14.841099378797768 ] ] ] } }
]
}
